id;lat;lon;x;y;source_name;info;station_name;exit_name
326;55.7567672;37.6309849;4189062.077117367;7510146.479605943;data.mos;Нет информации;Китай-город;Китай-город, вход-выход 3 в северный вестибюль
331;55.7573154;37.6316766;4189139.0768091483;7510254.929903725;data.mos;Нет информации;Китай-город;Китай-город, вход-выход 8 в северный вестибюль
327;55.7568819;37.6312698;4189093.7920402936;7510169.1705581965;data.mos;Нет информации;Китай-город;Китай-город, вход-выход 4 в северный вестибюль
330;55.7572362;37.6319506;4189169.5783496266;7510239.261689152;data.mos;Нет информации;Китай-город;Китай-город, вход-выход 7 в северный вестибюль
322;55.7531976;37.6331045;4189298.0299100527;7509440.343619151;data.mos;Нет информации;Китай-город;Китай-город, вход-выход 6 в южный вестибюль
321;55.7531116;37.6336406;4189357.7082890663;7509423.3319514105;data.mos;Нет информации;Китай-город;Китай-город, вход-выход 5 в южный вестибюль
317;55.7541345;37.6341765;4189417.3644041824;7509625.6743225185;data.mos;Нет информации;Китай-город;Китай-город, вход-выход 1 из южного вестибюля
318;55.7540238;37.6349733;4189506.0637744465;7509603.776226517;data.mos;Нет информации;Китай-город;Китай-город, вход-выход 2 в южный вестибюль
325;55.756604;37.6296491;4188913.376541565;7510114.194076615;data.mos;Нет информации;Китай-город;Китай-город, вход-выход 2 в северный вестибюль
280;55.6553856;37.5392381;4178848.8700594543;7490116.330468879;data.mos;Нет информации;Калужская;Калужская, вход-выход 6 в южный вестибюль
447;55.660114;37.7526435;4202605.050519989;7491049.374900847;data.mos;Нет информации;Братиславская;Братиславская, вход-выход 2 в северный вестибюль
446;55.6600507;37.7517426;4202504.762790733;7491036.883311322;data.mos;Нет информации;Братиславская;Братиславская, вход-выход 1 в северный вестибюль
91;55.5450107;37.5416454;4179116.849469641;7468368.246680174;data.mos;Нет информации;Бульвар адмирала Ушакова;Бульвар адмирала Ушакова, вход-выход в вестибюль
502;55.5702548;37.5764394;4182990.099832302;7473336.908045455;data.mos;Нет информации;Бульвар Дмитрия Донского;Бульвар Дмитрия Донского, вход-выход 4 в северный вестибюль
501;55.5700929;37.5771475;4183068.9251637333;7473305.031960089;data.mos;Нет информации;Бульвар Дмитрия Донского;Бульвар Дмитрия Донского, вход-выход 3 в северный вестибюль
89;55.5376805;37.5149399;4176144.0068082614;7466926.080342957;data.mos;Нет информации;Бунинская аллея;Бунинская аллея, вход-выход в вестибюль
383;55.653075;37.61792;4187607.699102102;7489660.426007324;data.mos;Нет информации;Варшавская;Варшавская, вход-выход 2 в южный вестибюль
384;55.6532132;37.6207903;4187927.219436526;7489687.693491364;data.mos;Нет информации;Варшавская;Варшавская, вход-выход 1 в северный вестибюль
277;55.6563232;37.5402196;4178958.130139668;7490301.335989434;data.mos;Нет информации;Калужская;Калужская, вход-выход 3 в южный вестибюль
281;55.6581538;37.5409869;4179043.5455849534;7490662.5594109725;data.mos;Нет информации;Калужская;Калужская, вход-выход 1 в северный вестибюль
151;55.6346647;37.6571455;4191974.2617882127;7486028.850769325;data.mos;Нет информации;Кантемировская;Кантемировская, вход-выход 1 в южный вестибюль
152;55.6350525;37.6576959;4192035.532035946;7486105.329746803;data.mos;Нет информации;Кантемировская;Кантемировская, вход-выход 2 в южный вестибюль
149;55.6367212;37.6553567;4191775.133483082;7486434.426753375;data.mos;Нет информации;Кантемировская;Кантемировская, вход-выход 2 в северный вестибюль
377;55.6528887;37.5964667;4185219.5286702663;7489623.66832841;data.mos;Нет информации;Каховская;Каховская, вход-выход 4 в южный вестибюль
284;55.6578591;37.5418665;4179141.4622090557;7490604.40654818;data.mos;Нет информации;Калужская;Калужская, вход-выход 4 в северный вестибюль
150;55.636917;37.656097;4191857.543302117;7486473.042878019;data.mos;Нет информации;Кантемировская;Кантемировская, вход-выход 3 в северный вестибюль
448;55.6599107;37.7521499;4202550.103219333;7491009.255854887;data.mos;Нет информации;Братиславская;Братиславская, вход-выход 3 в северный вестибюль
791;55.7733859;37.54459;4179444.640842231;7513434.831328282;data.mos;Нет информации;Беговая;Беговая, вход-выход 2 во 2-й вестибюль
790;55.774;37.5446657;4179453.067727684;7513556.370506872;data.mos;Нет информации;Беговая;Беговая, вход-выход 1 во 2-й вестибюль
792;55.7732229;37.5488844;4179922.691263493;7513402.571617122;data.mos;Нет информации;Беговая;Беговая, вход-выход 1 в 1-й вестибюль
794;55.774375;37.549137;4179950.810566868;7513630.589315341;data.mos;Нет информации;Беговая;Беговая, вход-выход 3 в 1-й вестибюль
394;55.7753945;37.5826448;4183680.8818004704;7513832.369125682;data.mos;Нет информации;Белорусская;Белорусская, вход в западный вестибюль
129;55.7772182;37.5820187;4183611.1846672846;7514193.329658271;data.mos;Нет информации;Белорусская;Белорусская, вход в вестибюль
396;55.777448;37.585696;4184020.539830779;7514238.814615088;data.mos;Нет информации;Белорусская;Белорусская, вход-выход 1 в восточный (новый) вестибюль
267;55.6418619;37.5253262;4177300.2044354873;7487448.351377464;data.mos;Нет информации;Беляево;Беляево, вход-выход 1 в южный вестибюль
269;55.6415467;37.5258676;4177360.4728078027;7487386.179158435;data.mos;Нет информации;Беляево;Беляево, вход-выход 3 в южный вестибюль
271;55.643846;37.5267264;4177456.073986497;7487839.720414458;data.mos;Нет информации;Беляево;Беляево, вход-выход 1 в северный вестибюль
142;55.6544846;37.6478561;4190940.170510438;7489938.550968099;data.mos;Нет информации;Каширская;Каширская, вход в южный вестибюль
145;55.655628;37.649519;4191125.283691678;7490164.159969742;data.mos;Нет информации;Каширская;Каширская, вход в северный вестибюль
57;55.742922;37.564427;4181652.8855810976;7507407.991688417;data.mos;Нет информации;Киевская;Киевская, выход 1 из вестибюля к пригородным поездам
59;55.743152;37.565065;4181723.907416223;7507453.476212;data.mos;Нет информации;Киевская;Киевская, выход 2 из вестибюля на площадь
400;55.743792;37.567119;4181952.5576503123;7507580.043253773;data.mos;Нет информации;Киевская;Киевская, вход-выход 1 в вестибюль
401;55.743743;37.56757;4182002.7627406605;7507570.352891254;data.mos;Нет информации;Киевская;Киевская, вход-выход 2 в вестибюль
324;55.7562297;37.6301157;4188965.3182159695;7510040.147567068;data.mos;Нет информации;Китай-город;Китай-город, вход-выход 1 в северный вестибюль
328;55.7569941;37.6306312;4189022.7034134734;7510191.3670032555;data.mos;Нет информации;Китай-город;Китай-город, вход-выход 5 в северный вестибюль
279;55.6556897;37.5384065;4178756.296770911;7490176.334440308;data.mos;Нет информации;Калужская;Калужская, вход-выход 5 в южный вестибюль
275;55.6565991;37.5393716;4178863.731211476;7490355.776917567;data.mos;Нет информации;Калужская;Калужская, вход-выход 1 в южный вестибюль
376;55.6530037;37.5969816;4185276.8470760756;7489646.358233007;data.mos;Нет информации;Каховская;Каховская, вход-выход 3 в южный вестибюль
375;55.6524548;37.5967073;4185246.312139751;7489538.058931942;data.mos;Нет информации;Каховская;Каховская, вход-выход 2 в южный вестибюль
374;55.6525546;37.597159;4185296.595153742;7489557.749601026;data.mos;Нет информации;Каховская;Каховская, вход-выход 1 в южный вестибюль
379;55.6534068;37.5997069;4185580.2260843352;7489725.8918074155;data.mos;Нет информации;Каховская;Каховская, вход-выход 2 в северный вестибюль
381;55.6529558;37.5998679;4185598.1485223523;7489636.907386383;data.mos;Нет информации;Каховская;Каховская, вход-выход 4 в северный вестибюль
380;55.653416;37.6001946;4185634.5165999946;7489727.70702135;data.mos;Нет информации;Каховская;Каховская, вход-выход 3 в северный вестибюль
378;55.6529588;37.6003877;4185656.0123936664;7489637.499297107;data.mos;Нет информации;Каховская;Каховская, вход-выход 1 в северный вестибюль
103;55.839091;37.487262;4173062.9170740345;7526449.684248361;data.mos;Нет информации;Водный стадион;Водный стадион, вход в южный вестибюль
106;55.8198862;37.4966084;4174103.353562785;7522643.328727667;data.mos;Нет информации;Войковская;Войковская, вход-выход 2 в северный вестибюль
107;55.8200536;37.4978475;4174241.2895438266;7522676.498977226;data.mos;Нет информации;Войковская;Войковская, вход-выход 3 в северный вестибюль
594;55.8483448;37.5903673;4184540.5465681213;7528284.441384617;data.mos;Нет информации;Владыкино;Владыкино, вход в северный вестибюль
101;55.8405471;37.4861169;4172935.4451251267;7526738.357219484;data.mos;Нет информации;Водный стадион;Водный стадион, вход в северный вестибюль
110;55.8180816;37.4980328;4174261.91704547;7522285.756950425;data.mos;Нет информации;Войковская;Войковская, вход-выход 3 в южный вестибюль
109;55.8183579;37.4990514;4174375.3070787922;7522340.503233165;data.mos;Нет информации;Войковская;Войковская, вход-выход 2 в южный вестибюль
108;55.8178071;37.4995989;4174436.254500002;7522231.3677059375;data.mos;Нет информации;Войковская;Войковская, вход-выход 1 в южный вестибюль
761;55.7256857;37.685034;4195078.795407202;7504000.124300322;data.mos;Нет информации;Волгоградский проспект;Волгоградский проспект, вход-выход 1 в восточный вестибюль
456;55.6907047;37.7564272;4203026.2500773035;7497088.493240702;data.mos;Нет информации;Волжская;Волжская, вход-выход 2 в южный вестибюль
17;55.836391;37.381439;4161282.7545998176;7525914.435730456;data.mos;Нет информации;Волоколамская;Волоколамская, вход в северный вестибюль
19;55.834667;37.383293;4161489.1409357483;7525572.689081093;data.mos;Нет информации;Волоколамская;Волоколамская, вход в южный вестибюль
637;55.7090889;37.5579244;4180929.0194602646;7500720.116711053;data.mos;Нет информации;Воробьёвы горы;Воробьёвы горы, вход-выход 1 в южный вестибюль
639;55.7117344;37.5616417;4181342.827403391;7501242.850645856;data.mos;Нет информации;Воробьёвы горы;Воробьёвы горы, вход 1 в северный вестибюль
641;55.7119958;37.5611434;4181287.3569011283;7501294.503540994;data.mos;Нет информации;Воробьёвы горы;Воробьёвы горы, вход 2 в северный вестибюль
638;55.7091802;37.5573612;4180866.32432305;7500738.156419324;data.mos;Нет информации;Воробьёвы горы;Воробьёвы горы, вход-выход 2 в южный вестибюль
871;55.7483761;37.5440139;4179380.5096835853;7508486.660157566;data.mos;Нет информации;Выставочная;Выставочная, вход-выход 2 в вестибюль со стороны моста Багратион
872;55.750243;37.542609;4179224.116930969;7508855.915416495;data.mos;Нет информации;Выставочная;Выставочная, вход 1 в вестибюль со стороны Экспоцентра
751;55.7158154;37.8191351;4210006.861574018;7502049.299653756;data.mos;Нет информации;Выхино;Выхино, вход-выход 1 в вестибюль
756;55.7157276;37.8176759;4209844.424173053;7502031.948553051;data.mos;Нет информации;Выхино;Выхино, вход-выход 6 в вестибюль
493;55.8242068;37.6386606;4189916.5321328486;7523499.499753711;data.mos;Нет информации;Выставочный центр;Выставочный центр, вход-выход в вестибюль
125;55.790523;37.556447;4180764.556044567;7516827.227828934;data.mos;Нет информации;Динамо;Динамо, вход в северный вестибюль
127;55.7889852;37.559939;4181153.283706417;7516522.749722306;data.mos;Нет информации;Динамо;Динамо, вход в южный вестибюль
582;55.807873;37.580249;4183414.1825644285;7520263.28998852;data.mos;Нет информации;Дмитровская;Дмитровская, вход-выход 1 в вестибюль
584;55.8080919;37.5814213;4183544.6824034858;7520306.651586178;data.mos;Нет информации;Дмитровская;Дмитровская, вход-выход 3 в вестибюль
398;55.7290528;37.6227295;4188143.090193072;7504665.730723553;data.mos;Нет информации;Добрынинская;Добрынинская, вход в вестибюль
182;55.610926;37.716543;4198586.361242607;7481348.724929141;data.mos;Нет информации;Домодедовская;Домодедовская, вход-выход 7 в северный вестибюль
273;55.6434915;37.5272194;4177510.9544954575;7487769.792885703;data.mos;Нет информации;Беляево;Беляево, вход-выход 3 в северный вестибюль
603;55.884046;37.6046466;4186130.1109730066;7535367.038611861;data.mos;Нет информации;Бибирево;Бибирево, вход-выход 2 в южный вестибюль
606;55.884215;37.601567;4185787.2914691595;7535400.581233369;data.mos;Нет информации;Бибирево;Бибирево, вход-выход 1 в северный вестибюль
604;55.88357;37.605269;4186199.3962240764;7535272.564320844;data.mos;Нет информации;Бибирево;Бибирево, вход-выход 3 в южный вестибюль
855;55.7522884;37.6086853;4186579.697000473;7509260.496583059;data.mos;Нет информации;Александровский сад;Александровский сад, вход-выход в вестибюль (Воздвиженка)
433;55.6323743;37.7434206;4201578.361988352;7485577.170873921;data.mos;Нет информации;Борисово;Борисово, вход-выход в южный вестибюль
434;55.6340555;37.7445891;4201708.438813344;7485908.710490062;data.mos;Нет информации;Борисово;Борисово, вход-выход в северный вестибюль
356;55.8459341;37.638487;4189897.2070692466;7527806.428206839;data.mos;Нет информации;Ботанический сад;Ботанический сад, вход-выход 1 в северный вестибюль
382;55.6535532;37.6179177;4187607.4430672727;7489754.7774362955;data.mos;Нет информации;Варшавская;Варшавская, вход-выход 1 в южный вестибюль
387;55.6536989;37.6230912;4188183.3544528917;7489783.5250580665;data.mos;Нет информации;Варшавская;Варшавская, вход-выход 4 в северный вестибюль
352;55.8224642;37.6413856;4190219.87774526;7523154.174321843;data.mos;Нет информации;ВДНХ;ВДНХ, вход в северный вестибюль
351;55.8196763;37.6407422;4190148.2547848835;7522601.737320113;data.mos;Нет информации;ВДНХ;ВДНХ, вход-выход 4 в южный вестибюль
349;55.8200023;37.6396426;4190025.847872808;7522666.333885583;data.mos;Нет информации;ВДНХ;ВДНХ, вход-выход 2 в южный вестибюль
357;55.8466671;37.6389383;4189947.4455554415;7527951.770264188;data.mos;Нет информации;Ботанический сад;Ботанический сад, вход-выход 2 в северный вестибюль
354;55.8439021;37.6373929;4189775.4124143706;7527403.52976626;data.mos;Нет информации;Ботанический сад;Ботанический сад, вход в южный вестибюль
348;55.82028;37.639943;4190059.2882478423;7522721.3602825;data.mos;Нет информации;ВДНХ;ВДНХ, вход-выход 1 в южный вестибюль
592;55.8460848;37.5892624;4184417.5496627446;7527836.309358249;data.mos;Нет информации;Владыкино;Владыкино, вход в южный вестибюль
763;55.724504;37.688395;4195452.940215757;7503766.540119428;data.mos;Нет информации;Волгоградский проспект;Волгоградский проспект, вход-выход 1 в западный вестибюль
458;55.6911954;37.7511401;4202437.69279753;7497185.404163721;data.mos;Нет информации;Волжская;Волжская, вход-выход 2 в северный вестибюль
177;55.610256;37.71815;4198765.251664312;7481216.674384486;data.mos;Нет информации;Домодедовская;Домодедовская, вход-выход 2 в северный вестибюль
350;55.819972;37.641058;4190183.4094800767;7522660.32994886;data.mos;Нет информации;ВДНХ;ВДНХ, вход-выход 3 в южный вестибюль
457;55.6910781;37.7515886;4202487.619589152;7497162.237859354;data.mos;Нет информации;Волжская;Волжская, вход-выход 1 в северный вестибюль
455;55.690745;37.7552393;4202894.013654191;7497096.45225375;data.mos;Нет информации;Волжская;Волжская, вход-выход 1 в южный вестибюль
180;55.610249;37.716894;4198625.434383876;7481215.294763839;data.mos;Нет информации;Домодедовская;Домодедовская, вход-выход 5 в северный вестибюль
178;55.6099729;37.7175836;4198702.200304726;7481160.87878014;data.mos;Нет информации;Домодедовская;Домодедовская, вход-выход 3 в северный вестибюль
185;55.610893;37.720888;4199070.044430103;7481342.220894267;data.mos;Нет информации;Домодедовская;Домодедовская, вход-выход 2 в южный вестибюль
583;55.807779;37.580614;4183454.8141785674;7520244.669733617;data.mos;Нет информации;Дмитровская;Дмитровская, вход-выход 2 в вестибюль
585;55.8081488;37.5818692;4183594.542403411;7520317.922868256;data.mos;Нет информации;Дмитровская;Дмитровская, вход-выход 4 в вестибюль
465;55.7178288;37.6762283;4194098.549367123;7502447.1999477465;data.mos;Нет информации;Дубровка;Дубровка, вход-выход 1 в вестибюль
427;55.6134881;37.745559;4201816.407587465;7481853.710964224;data.mos;Нет информации;Зябликово;Зябликово, вход-выход 2 в северный вестибюль
426;55.6133905;37.744236;4201669.131901145;7481834.473547318;data.mos;Нет информации;Зябликово;Зябликово, вход-выход 1 в северный вестибюль
75;55.7877899;37.7798923;4205638.373060717;7516286.093516309;data.mos;Нет информации;Измайловская;Измайловская, вход-выход 1 в западный вестибюль
77;55.7878638;37.7833622;4206024.64056182;7516300.724689986;data.mos;Нет информации;Измайловская;Измайловская, вход-выход 1 в восточный вестибюль
264;55.6343754;37.5189922;4176595.106780803;7485971.797708459;data.mos;Нет информации;Коньково;Коньково, вход-выход 4 в северный вестибюль
258;55.632188;37.519367;4176636.8293259526;7485540.432616373;data.mos;Нет информации;Коньково;Коньково, вход-выход 2 в южный вестибюль
265;55.6346877;37.5197964;4176684.629915299;7486033.386633927;data.mos;Нет информации;Коньково;Коньково, вход-выход 5 в северный вестибюль
262;55.6340114;37.5199465;4176701.3389708675;7485900.013605384;data.mos;Нет информации;Коньково;Коньково, вход-выход 2 в северный вестибюль
261;55.6339138;37.5205105;4176764.1231636745;7485880.766113106;data.mos;Нет информации;Коньково;Коньково, вход-выход 1 в северный вестибюль
191;55.6142123;37.746215;4201889.433173425;7481996.455670359;data.mos;Нет информации;Красногвардейская;Красногвардейская, вход-выход 1 в южный вестибюль
193;55.6136532;37.7462738;4201895.9787594825;7481886.253056139;data.mos;Нет информации;Красногвардейская;Красногвардейская, вход-выход 3 в южный вестибюль
190;55.6136652;37.7466762;4201940.77372258;7481888.61832558;data.mos;Нет информации;Красногвардейская;Красногвардейская, вход-выход 4 в северный вестибюль
192;55.6142302;37.7465907;4201931.255906115;7481999.983914518;data.mos;Нет информации;Красногвардейская;Красногвардейская, вход-выход 2 в южный вестибюль
189;55.6134561;37.7424333;4201468.456255092;7481847.403609144;data.mos;Нет информации;Красногвардейская;Красногвардейская, вход-выход 3 в северный вестибюль
173;55.6138351;37.6935179;4196023.218835142;7481922.106676437;data.mos;Нет информации;Орехово;Орехово, вход-выход 2 в северный вестибюль
172;55.6141812;37.6940766;4196085.413034649;7481990.32559635;data.mos;Нет информации;Орехово;Орехово, вход-выход 1 в северный вестибюль
599;55.862542;37.604393;4186101.880350141;7531100.179137372;data.mos;Нет информации;Отрадное;Отрадное, вход-выход 4 в южный вестибюль
601;55.864331;37.605332;4186206.4093519957;7531455.065399536;data.mos;Нет информации;Отрадное;Отрадное, вход-выход 2 в северный вестибюль
600;55.864174;37.606024;4186283.4424396246;7531423.920450632;data.mos;Нет информации;Отрадное;Отрадное, вход-выход 1 в северный вестибюль
596;55.8627468;37.6038026;4186036.157322777;7531140.804751949;data.mos;Нет информации;Отрадное;Отрадное, вход-выход 1 в южный вестибюль
663;55.7569836;37.6145304;4187230.3705561087;7510189.289793121;data.mos;Нет информации;Охотный ряд;Охотный ряд, вход-выход 6 в южный вестибюль
662;55.7567501;37.6146643;4187245.2762359264;7510143.096740835;data.mos;Нет информации;Охотный ряд;Охотный ряд, вход-выход 5 в южный вестибюль
188;55.6140271;37.7428056;4201509.900501514;7481959.951249929;data.mos;Нет информации;Красногвардейская;Красногвардейская, вход-выход 2 в северный вестибюль
194;55.6134786;37.7429054;4201521.010186695;7481851.838467649;data.mos;Нет информации;Красногвардейская;Красногвардейская, вход-выход 4 в южный вестибюль
187;55.6140076;37.7423932;4201463.992343511;7481956.107651979;data.mos;Нет информации;Красногвардейская;Красногвардейская, вход-выход 1 в северный вестибюль
411;55.7602928;37.5769378;4183045.581466514;7510843.974982737;data.mos;Нет информации;Краснопресненская;Краснопресненская, вход в вестибюль
690;55.7799823;37.6660804;4192968.8903065016;7514740.453493382;data.mos;Нет информации;Красносельская;Красносельская, вход-выход в вестибюль
682;55.768377;37.648027;4190959.195011415;7512443.569833988;data.mos;Нет информации;Красные ворота;Красные ворота, вход в южный вестибюль
684;55.7697611;37.6503572;4191218.591688861;7512717.47053968;data.mos;Нет информации;Красные ворота;Красные ворота, вход в северный вестибюль
467;55.7323251;37.6655383;4192908.5440105433;7505312.65214108;data.mos;Нет информации;Крестьянская застава;Крестьянская застава, вход-выход в вестибюль
650;55.7456522;37.6053316;4186206.3648241996;7507947.930057175;data.mos;Нет информации;Кропоткинская;Кропоткинская, вход-выход 1 в северный вестибюль
649;55.7449791;37.6015583;4185786.322989589;7507814.810836551;data.mos;Нет информации;Кропоткинская;Кропоткинская, вход в южный вестибюль
32;55.757872;37.407313;4164163.0351046026;7510365.043531475;data.mos;Нет информации;Крылатское;Крылатское, вход-выход 2 в западный вестибюль
36;55.755564;37.407657;4164201.3290094356;7509908.456131823;data.mos;Нет информации;Крылатское;Крылатское, вход-выход 2 в восточный вестибюль
37;55.755375;37.408601;4164306.414608744;7509871.067805925;data.mos;Нет информации;Крылатское;Крылатское, вход-выход 3 в восточный вестибюль
33;55.757724;37.408585;4164304.633496892;7510335.764152609;data.mos;Нет информации;Крылатское;Крылатское, вход-выход 3 в западный вестибюль
31;55.757423;37.40738;4164170.493510486;7510276.216569452;data.mos;Нет информации;Крылатское;Крылатское, вход-выход 1 в западный вестибюль
34;55.758057;37.408542;4164299.8467587875;7510401.642911308;data.mos;Нет информации;Крылатское;Крылатское, вход-выход 4 в западный вестибюль
38;55.755663;37.408899;4164339.5878170007;7509928.040565314;data.mos;Нет информации;Крылатское;Крылатское, вход-выход 4 в восточный вестибюль
35;55.755342;37.407686;4164204.5572746685;7509864.539704112;data.mos;Нет информации;Крылатское;Крылатское, вход-выход 1 в восточный вестибюль
288;55.671235;37.555321;4180639.210297934;7493244.3009412065;data.mos;Нет информации;Новые Черёмушки;Новые Черёмушки, вход-выход 1 в северный вестибюль
390;55.729349;37.611311;4186871.988587449;7504724.286118924;data.mos;Нет информации;Октябрьская;Октябрьская, вход 1 в вестибюль кольцевой линии
314;55.7313189;37.6126133;4187016.9599603093;7505113.724407483;data.mos;Нет информации;Октябрьская;Октябрьская, вход 1 в вестибюль
803;55.7939801;37.4922446;4173617.5775688607;7517511.763370456;data.mos;Нет информации;Октябрьское поле;Октябрьское поле, вход-выход 1 во 2-й вестибюль
804;55.7941438;37.4919278;4173582.311554177;7517544.178885457;data.mos;Нет информации;Октябрьское поле;Октябрьское поле, вход-выход 2 во 2-й вестибюль
806;55.7941853;37.4925294;4173649.281359839;7517552.396646097;data.mos;Нет информации;Октябрьское поле;Октябрьское поле, вход-выход 4 во 2-й вестибюль
805;55.7943253;37.4922657;4173619.9264101163;7517580.1192767;data.mos;Нет информации;Октябрьское поле;Октябрьское поле, вход-выход 3 во 2-й вестибюль
290;55.671056;37.55586;4180699.2115034712;7493208.967185861;data.mos;Нет информации;Новые Черёмушки;Новые Черёмушки, вход-выход 3 в северный вестибюль
809;55.7928291;37.4944062;4173858.2057801597;7517283.848721369;data.mos;Нет информации;Октябрьское поле;Октябрьское поле, вход-выход 3 в 1-й вестибюль
319;55.753755;37.635443;4189558.3505392727;7509550.603872671;data.mos;Нет информации;Китай-город;Китай-город, вход-выход 3 в южный вестибюль
464;55.7062422;37.6853525;4195114.250665019;7500157.666471708;data.mos;Нет информации;Кожуховская;Кожуховская, вход-выход 2 из вестибюля
463;55.7064123;37.685589;4195140.577724592;7500191.273634005;data.mos;Нет информации;Кожуховская;Кожуховская, вход-выход 1 в вестибюль
158;55.676834;37.6627956;4192603.228043144;7494349.598736323;data.mos;Нет информации;Коломенская;Коломенская, вход-выход 1 в южный вестибюль
160;55.6776867;37.6630158;4192627.740595016;7494517.944003085;data.mos;Нет информации;Коломенская;Коломенская, вход-выход 3 в южный вестибюль
162;55.679302;37.6634124;4192671.8899050658;7494836.856502116;data.mos;Нет информации;Коломенская;Коломенская, вход-выход 1 в северный вестибюль
159;55.676747;37.6643994;4192781.7622424783;7494332.422868734;data.mos;Нет информации;Коломенская;Коломенская, вход-выход 2 в южный вестибюль
161;55.6776258;37.6645394;4192797.34697119;7494505.920629676;data.mos;Нет информации;Коломенская;Коломенская, вход-выход 4 в южный вестибюль
165;55.679487;37.664952;4192843.277393091;7494873.382330166;data.mos;Нет информации;Коломенская;Коломенская, вход-выход 4 в северный вестибюль
163;55.679214;37.664904;4192837.934057533;7494819.482114811;data.mos;Нет информации;Коломенская;Коломенская, вход-выход 2 в северный вестибюль
164;55.6795598;37.6634398;4192674.940059113;7494887.755784461;data.mos;Нет информации;Коломенская;Коломенская, вход-выход 3 в северный вестибюль
404;55.775717;37.655289;4191767.5971535556;7513896.199541751;data.mos;Нет информации;Комсомольская;Комсомольская, вход 2 в вестибюль
408;55.7753031;37.6558575;4191830.882284072;7513814.278989093;data.mos;Нет информации;Комсомольская;Комсомольская, вход 5 в вестибюль
409;55.7749342;37.6563189;4191882.2450971236;7513741.265728917;data.mos;Нет информации;Комсомольская;Комсомольская, вход 6 в вестибюль
403;55.77673;37.655917;4191837.505793774;7514096.699756773;data.mos;Нет информации;Комсомольская;Комсомольская, выход 1 из вестибюля
407;55.7755021;37.656078;4191855.428231791;7513853.6656647;data.mos;Нет информации;Комсомольская;Комсомольская, вход 4 в вестибюль
406;55.775835;37.655895;4191835.056764976;7513919.554678686;data.mos;Нет информации;Комсомольская;Комсомольская, вход 3 в вестибюль
259;55.6325183;37.5180365;4176488.7187434523;7485605.567714415;data.mos;Нет информации;Коньково;Коньково, вход-выход 3 в южный вестибюль
388;55.779503;37.601021;4185726.5110271866;7514645.578437543;data.mos;Нет информации;Новослободская;Новослободская, вход в вестибюль
239;55.601509;37.552851;4180364.251155674;7479492.93191004;data.mos;Нет информации;Новоясеневская;Новоясеневская, вход-выход 2 в северный вестибюль
238;55.6019926;37.5528887;4180368.447900477;7479588.223330683;data.mos;Нет информации;Новоясеневская;Новоясеневская, вход-выход 1 в северный вестибюль
285;55.6696118;37.5536016;4180447.8075654637;7492923.894833809;data.mos;Нет информации;Новые Черёмушки;Новые Черёмушки, вход-выход 1 в южный вестибюль
286;55.6694298;37.5541228;4180505.827284065;7492887.970384333;data.mos;Нет информации;Новые Черёмушки;Новые Черёмушки, вход-выход 2 в южный вестибюль
810;55.7927107;37.494672;4173887.7945008124;7517260.404190784;data.mos;Нет информации;Октябрьское поле;Октябрьское поле, вход-выход 4 в 1-й вестибюль
807;55.7930327;37.494715;4173892.5812389166;7517324.163976087;data.mos;Нет информации;Октябрьское поле;Октябрьское поле, вход-выход 1 в 1-й вестибюль
808;55.7929182;37.4949407;4173917.706047989;7517301.491569676;data.mos;Нет информации;Октябрьское поле;Октябрьское поле, вход-выход 2 в 1-й вестибюль
174;55.612207;37.695852;4196283.049658603;7481601.203967444;data.mos;Нет информации;Орехово;Орехово, вход в южный вестибюль
310;55.7084099;37.5874891;4184220.146809721;7500585.956347733;data.mos;Нет информации;Ленинский проспект;Ленинский проспект, вход в северный вестибюль
672;55.7590119;37.6261416;4188522.923427607;7510590.557822466;data.mos;Нет информации;Лубянка;Лубянка, вход-выход 1 в северный вестибюль
673;55.7588185;37.6264345;4188555.5289064613;7510552.295700226;data.mos;Нет информации;Лубянка;Лубянка, вход-выход 2 в северный вестибюль
674;55.7589691;37.6271876;4188639.363614977;7510582.090283718;data.mos;Нет информации;Лубянка;Лубянка, вход-выход 3 в северный вестибюль
675;55.759298;37.6281027;4188741.232081002;7510647.159996568;data.mos;Нет информации;Лубянка;Лубянка, вход-выход 4 в северный вестибюль
678;55.7600076;37.6280056;4188730.422958446;7510787.549425085;data.mos;Нет информации;Лубянка;Лубянка, вход-выход 7 в северный вестибюль
677;55.7596192;37.6284663;4188781.707847855;7510710.706867879;data.mos;Нет информации;Лубянка;Лубянка, вход-выход 6 в северный вестибюль
679;55.759958;37.628384;4188772.546253762;7510777.736326748;data.mos;Нет информации;Лубянка;Лубянка, вход-выход 8 в северный вестибюль
670;55.7590701;37.6257502;4188479.352978911;7510602.072107357;data.mos;Нет информации;Лубянка;Лубянка, вход в южный вестибюль
449;55.674484;37.7610191;4203537.418047077;7493885.666306552;data.mos;Нет информации;Люблино;Люблино, вход-выход в южный вестибюль
451;55.6767171;37.7618126;4203625.750063022;7494326.519906969;data.mos;Нет информации;Люблино;Люблино, вход-выход 2 в северный вестибюль
676;55.7593986;37.6283278;4188766.2900983803;7510667.062852023;data.mos;Нет информации;Лубянка;Лубянка, вход-выход 5 в северный вестибюль
450;55.6770532;37.7618992;4203635.390330925;7494392.874195073;data.mos;Нет информации;Люблино;Люблино, вход-выход 1 в северный вестибюль
452;55.6771029;37.7621184;4203659.791563306;7494402.686228338;data.mos;Нет информации;Люблино;Люблино, вход-выход 3 в северный вестибюль
453;55.677062;37.7627843;4203733.919212226;7494394.61153607;data.mos;Нет информации;Люблино;Люблино, вход-выход 4 в северный вестибюль
454;55.6769211;37.7629313;4203750.283177372;7494366.794384558;data.mos;Нет информации;Люблино;Люблино, вход-выход 5 в северный вестибюль
199;55.7406722;37.656423;4191893.8334561144;7506963.088080734;data.mos;Нет информации;Марксистская;Марксистская, вход-выход 2 в вестибюль
198;55.7411071;37.6567019;4191924.8804620975;7507049.088649522;data.mos;Нет информации;Марксистская;Марксистская, вход-выход 1 в вестибюль
487;55.7935291;37.6168452;4187488.052913397;7517422.458044266;data.mos;Нет информации;Марьина роща;Марьина роща, вход-выход 3 в южный вестибюль
485;55.7935652;37.6159225;4187385.3384192423;7517429.60639261;data.mos;Нет информации;Марьина роща;Марьина роща, вход-выход 1 в южный вестибюль
488;55.7971408;37.6169578;4187500.5874880604;7518137.66233537;data.mos;Нет информации;Марьина роща;Марьина роща, вход-выход в северный вестибюль
440;55.651296;37.743716;4201611.245765932;7489309.429867692;data.mos;Нет информации;Марьино;Марьино, вход-выход 2 в северный вестибюль
441;55.6510084;37.7438447;4201625.572584397;7489252.687975718;data.mos;Нет информации;Марьино;Марьино, вход-выход 3 в северный вестибюль
435;55.6491637;37.7438608;4201627.364828199;7488888.748760756;data.mos;Нет информации;Марьино;Марьино, вход-выход 1 в южный вестибюль
438;55.6489065;37.7439623;4201638.663756515;7488838.007364381;data.mos;Нет информации;Марьино;Марьино, вход-выход 4 в южный вестибюль
436;55.649279;37.744483;4201696.627815371;7488911.495692436;data.mos;Нет информации;Марьино;Марьино, вход-выход 2 в южный вестибюль
437;55.648937;37.744606;4201710.320112739;7488844.024503221;data.mos;Нет информации;Марьино;Марьино, вход-выход 3 в южный вестибюль
779;55.7616171;37.6241745;4188303.946857269;7511105.987283205;data.mos;Нет информации;Кузнецкий мост;Кузнецкий мост, вход в вестибюль
741;55.705308;37.763751;4203841.5317639755;7499973.096410623;data.mos;Нет информации;Кузьминки;Кузьминки, вход-выход 3 в западный вестибюль
740;55.7060321;37.7640246;4203871.988776657;7500116.156592534;data.mos;Нет информации;Кузьминки;Кузьминки, вход-выход 2 в западный вестибюль
738;55.704826;37.767415;4204249.406378242;7499877.869310028;data.mos;Нет информации;Кузьминки;Кузьминки, вход-выход 4 в восточный вестибюль
735;55.705532;37.767726;4204284.026739879;7500017.3517285185;data.mos;Нет информации;Кузьминки;Кузьминки, вход-выход 1 в восточный вестибюль
43;55.730675;37.445477;4168411.4321512366;7504986.426792089;data.mos;Нет информации;Кунцевская;Кунцевская, вход-выход 1 в западный вестибюль
46;55.73082;37.446469;4168521.861086104;7505015.092790366;data.mos;Нет информации;Кунцевская;Кунцевская, вход-выход 2 в восточный вестибюль
44;55.730541;37.445568;4168421.5622248994;7504959.935550413;data.mos;Нет информации;Кунцевская;Кунцевская, вход-выход 2 в западный вестибюль
45;55.730666;37.446528;4168528.4289360614;7504984.647526741;data.mos;Нет информации;Кунцевская;Кунцевская, вход-выход 1 в восточный вестибюль
66;55.758613;37.658992;4192179.813227963;7510511.639930282;data.mos;Нет информации;Курская;Курская, вход-выход в вестибюль
416;55.7585107;37.6601558;4192309.366851348;7510491.401152411;data.mos;Нет информации;Курская;Курская, вход-выход 2 в вестибюль
415;55.757855;37.660164;4192310.279671173;7510361.680353928;data.mos;Нет информации;Курская;Курская, вход-выход 1 в вестибюль с Курского вокзала
418;55.7561757;37.6599122;4192282.249423391;7510029.464987423;data.mos;Нет информации;Курская;Курская, вход 1 в вестибюль
843;55.7394196;37.5347739;4178351.917588655;7506715.394396138;data.mos;Нет информации;Кутузовская;Кутузовская, вход-выход в южный вестибюль
844;55.7405718;37.534101;4178277.0107033006;7506943.234326107;data.mos;Нет информации;Кутузовская;Кутузовская, вход-выход в северный вестибюль
308;55.7068188;37.5850864;4183952.679469192;7500271.587639114;data.mos;Нет информации;Ленинский проспект;Ленинский проспект, вход в южный вестибюль
439;55.651236;37.743045;4201536.550387611;7489297.592164588;data.mos;Нет информации;Марьино;Марьино, вход-выход 1 в северный вестибюль
442;55.6509113;37.7431633;4201549.719483371;7489233.530775978;data.mos;Нет информации;Марьино;Марьино, вход-выход 4 в северный вестибюль
131;55.771143;37.594548;4185005.9399632816;7512990.945587587;data.mos;Нет информации;Маяковская;Маяковская, вход в северный вестибюль
134;55.76926;37.596533;4185226.909152506;7512618.306318852;data.mos;Нет информации;Маяковская;Маяковская, вход-выход 2 в южный вестибюль
553;55.6728519;37.6110945;4186847.887917693;7493563.476696553;data.mos;Нет информации;Нагорная;Нагорная, вход-выход 2 в вестибюль
549;55.663502;37.6062028;4186303.3463645787;7491717.990559998;data.mos;Нет информации;Нахимовский проспект;Нахимовский проспект, вход-выход 1 в северный вестибюль
551;55.6635432;37.6069995;4186392.034602894;7491726.121661511;data.mos;Нет информации;Нахимовский проспект;Нахимовский проспект, вход-выход 3 в северный вестибюль
547;55.661613;37.6041081;4186070.1654272135;7491345.192695343;data.mos;Нет информации;Нахимовский проспект;Нахимовский проспект, вход-выход 1 в южный вестибюль
548;55.6617517;37.6047437;4186140.9200955625;7491372.564801053;data.mos;Нет информации;Нахимовский проспект;Нахимовский проспект, вход-выход 2 в южный вестибюль
550;55.6637839;37.6061591;4186298.481702831;7491773.625622263;data.mos;Нет информации;Нахимовский проспект;Нахимовский проспект, вход-выход 2 в северный вестибюль
226;55.7522622;37.8145804;4209499.834689303;7509255.314075528;data.mos;Нет информации;Новогиреево;Новогиреево, вход-выход 2 в западный вестибюль
228;55.751722;37.81491;4209536.525593468;7509148.460249406;data.mos;Нет информации;Новогиреево;Новогиреево, вход-выход 4 в западный вестибюль
232;55.7512382;37.8185824;4209945.335291457;7509052.763835929;data.mos;Нет информации;Новогиреево;Новогиреево, вход-выход 4 в восточный вестибюль
229;55.7516932;37.8184026;4209925.320047013;7509142.763530137;data.mos;Нет информации;Новогиреево;Новогиреево, вход-выход 1 в восточный вестибюль
236;55.7461213;37.8655979;4215179.076810849;7508040.705484931;data.mos;Нет информации;Новокосино;Новокосино, вход-выход 1 в восточный вестибюль
237;55.744476;37.8658385;4215205.860280335;7507715.314074588;data.mos;Нет информации;Новокосино;Новокосино, вход-выход 2 в восточный вестибюль
235;55.7438943;37.8625401;4214838.684071901;7507600.274396787;data.mos;Нет информации;Новокосино;Новокосино, вход-выход 3 в западный вестибюль
234;55.7441695;37.8623576;4214818.3682648325;7507654.699005675;data.mos;Нет информации;Новокосино;Новокосино, вход-выход 2 в западный вестибюль
233;55.745471;37.861671;4214741.936302453;7507912.093844391;data.mos;Нет информации;Новокосино;Новокосино, вход-выход 1 в западный вестибюль
137;55.7422968;37.6292367;4188867.468383562;7507284.354242615;data.mos;Нет информации;Новокузнецкая;Новокузнецкая, вход в вестибюль
789;55.7656698;37.604118;4186071.2674901728;7511907.86787395;data.mos;Нет информации;Пушкинская;Пушкинская, вход-выход 1 в совмещенный вестибюль
5;55.8546831;37.354253;4158256.422923112;7529541.39246243;data.mos;Нет информации;Пятницкое шоссе;Пятницкое шоссе, вход-выход 3 в южный вестибюль
6;55.855143;37.354014;4158229.817564812;7529632.603412517;data.mos;Нет информации;Пятницкое шоссе;Пятницкое шоссе, вход-выход 4 в южный вестибюль
4;55.855288;37.353016;4158118.720713;7529661.361165737;data.mos;Нет информации;Пятницкое шоссе;Пятницкое шоссе, вход-выход 2 в южный вестибюль
2;55.857297;37.355414;4158385.6648519235;7530059.815838807;data.mos;Нет информации;Пятницкое шоссе;Пятницкое шоссе, выход из северного вестибюля
97;55.8557359;37.4755931;4171763.9410679163;7529750.193551497;data.mos;Нет информации;Речной вокзал;Речной вокзал, вход в северный вестибюль
491;55.8217898;37.609212;4186638.328976274;7523020.534796325;data.mos;Нет информации;Телецентр;Телецентр, выход из вестибюля
256;55.619857;37.505166;4175055.9812371973;7483109.154494908;data.mos;Нет информации;Тёплый стан;Тёплый стан, вход-выход 5 в северный вестибюль
253;55.6198202;37.5063141;4175183.787144576;7483101.899858632;data.mos;Нет информации;Тёплый стан;Тёплый стан, вход-выход 2 в северный вестибюль
370;55.886008;37.661087;4192413.027561175;7535756.459579064;data.mos;Нет информации;Медведково;Медведково, вход в южный вестибюль
14;55.845533;37.363824;4159321.8617694946;7527726.897717378;data.mos;Нет информации;Митино;Митино, вход-выход 1 в южный вестибюль
12;55.846763;37.361271;4159037.6631094995;7527970.785887538;data.mos;Нет информации;Митино;Митино, вход-выход 6 в северный вестибюль
7;55.845982;37.360512;4158953.1716159866;7527815.925919247;data.mos;Нет информации;Митино;Митино, вход-выход 1 в северный вестибюль
39;55.74122;37.415713;4165098.1188272657;7507071.414545964;data.mos;Нет информации;Молодёжная;Молодёжная, вход в западный вестибюль
41;55.740201;37.417866;4165337.789690944;7506869.910344315;data.mos;Нет информации;Молодёжная;Молодёжная, вход в восточный вестибюль
21;55.82354;37.385197;4161701.0932462187;7523367.360317425;data.mos;Нет информации;Мякинино;Мякинино, вход-выход в вестибюль 1
556;55.6822357;37.6209364;4187943.48321413;7495416.097513137;data.mos;Нет информации;Нагатинская;Нагатинская, вход-выход 3 в южный вестибюль
554;55.682157;37.6216372;4188021.4959132783;7495400.5581153175;data.mos;Нет информации;Нагатинская;Нагатинская, вход-выход 1 в южный вестибюль
665;55.7572616;37.614986;4187281.0877161147;7510244.286592885;data.mos;Нет информации;Охотный ряд;Охотный ряд, вход-выход 8 в южный вестибюль
664;55.7572071;37.6154233;4187329.767729439;7510233.504815275;data.mos;Нет информации;Охотный ряд;Охотный ряд, вход-выход 7 в южный вестибюль
659;55.7566567;37.6156184;4187351.4861620925;7510124.619597359;data.mos;Нет информации;Охотный ряд;Охотный ряд, вход-выход 2 в южный вестибюль
658;55.7560971;37.6177488;4187588.641205278;7510013.915925709;data.mos;Нет информации;Охотный ряд;Охотный ряд, вход-выход 1 в южный вестибюль
660;55.7568832;37.6155387;4187342.6139986757;7510169.427735891;data.mos;Нет информации;Охотный ряд;Охотный ряд, вход-выход 3 в южный вестибюль
422;55.7313438;37.6362414;4189647.228020722;7505118.647124948;data.mos;Нет информации;Павелецкая;Павелецкая, вход 1 в вестибюль
555;55.68216;37.6213636;4187991.0389005975;7495401.150467904;data.mos;Нет информации;Нагатинская;Нагатинская, вход-выход 2 в южный вестибюль
558;55.68417;37.6227098;4188140.8971991036;7495798.036912925;data.mos;Нет информации;Нагатинская;Нагатинская, вход-выход 1 в северный вестибюль
552;55.6729139;37.6103001;4186759.455714206;7493575.715747462;data.mos;Нет информации;Нагорная;Нагорная, вход-выход 1 в вестибюль
139;55.7296879;37.6388141;4189933.619674685;7504791.283367067;data.mos;Нет информации;Павелецкая;Павелецкая, вход в вестибюль
647;55.7350914;37.5933065;4184867.7368154614;7505859.581559284;data.mos;Нет информации;Парк культуры;Парк культуры, вход 2 в объединенный вестибюль
646;55.7360872;37.5949799;4185054.018851355;7506056.472193357;data.mos;Нет информации;Парк культуры;Парк культуры, вход-выход 1 в вестибюль
54;55.73644;37.51592;4176253.111041188;7506126.229389302;data.mos;Нет информации;Парк Победы;Парк Победы, вход-выход 4 в вестибюль
51;55.735804;37.517105;4176385.0246377783;7506000.477077308;data.mos;Нет информации;Парк Победы;Парк Победы, вход-выход 1 в вестибюль
53;55.73631;37.517599;4176440.016466229;7506100.52513376;data.mos;Нет информации;Парк Победы;Парк Победы, вход-выход 3 в вестибюль
52;55.735922;37.517692;4176450.369178873;7506023.808326286;data.mos;Нет информации;Парк Победы;Парк Победы, вход-выход 2 в вестибюль
55;55.736633;37.517273;4176403.7263122317;7506164.390480429;data.mos;Нет информации;Парк Победы;Парк Победы, вход-выход 5 в вестибюль
73;55.7884901;37.7496596;4202272.884291411;7516424.724506363;data.mos;Нет информации;Партизанская;Партизанская, вход в вестибюль
372;55.8879931;37.6614571;4192454.2269047177;7536150.485507044;data.mos;Нет информации;Медведково;Медведково, вход в северный вестибюль
869;55.7478886;37.533285;4178186.1739988127;7508390.240152738;data.mos;Нет информации;Международная;Международная, вход-выход в вестибюль
573;55.7814401;37.5987019;4185468.349996088;7515029.024939681;data.mos;Нет информации;Менделеевская;Менделеевская, вход-выход 1 в вестибюль
575;55.7819132;37.5991088;4185513.645896891;7515122.6773843905;data.mos;Нет информации;Менделеевская;Менделеевская, вход-выход 3 в вестибюль
574;55.7816926;37.5984772;4185443.336506506;7515079.008400577;data.mos;Нет информации;Менделеевская;Менделеевская, вход-выход 2 в вестибюль
9;55.846255;37.359469;4158837.065387089;7527870.057154952;data.mos;Нет информации;Митино;Митино, вход-выход 3 в северный вестибюль
11;55.846321;37.361159;4159025.19532653;7527883.143884387;data.mos;Нет информации;Митино;Митино, вход-выход 5 в северный вестибюль
15;55.844829;37.363396;4159274.217027435;7527587.309912058;data.mos;Нет информации;Митино;Митино, вход-выход 2 в южный вестибюль
13;55.847006;37.360486;4158950.277309227;7528018.969585329;data.mos;Нет информации;Митино;Митино, вход-выход 7 в северный вестибюль
516;55.6115949;37.6032311;4185972.5382337887;7481480.5609249715;data.mos;Нет информации;Пражская;Пражская, вход-выход 1 в южный вестибюль
701;55.795534;37.7148632;4198399.366761972;7517819.468732523;data.mos;Нет информации;Преображенская площадь;Преображенская площадь, вход-выход 7 в южный вестибюль
700;55.7953081;37.7148765;4198400.8473112;7517774.7349488735;data.mos;Нет информации;Преображенская площадь;Преображенская площадь, вход-выход 6 в южный вестибюль
707;55.796922;37.716974;4198634.339943139;7518094.332735541;data.mos;Нет информации;Преображенская площадь;Преображенская площадь, вход-выход 6 в северный вестибюль
702;55.795982;37.71706;4198643.913419346;7517908.184573469;data.mos;Нет информации;Преображенская площадь;Преображенская площадь, вход-выход 1 в северный вестибюль
706;55.7968666;37.7166493;4198598.194504478;7518083.361751173;data.mos;Нет информации;Преображенская площадь;Преображенская площадь, вход-выход 5 в северный вестибюль
703;55.796064;37.717543;4198697.6807333995;7517924.422851278;data.mos;Нет информации;Преображенская площадь;Преображенская площадь, вход-выход 2 в северный вестибюль
765;55.7317821;37.664368;4192778.2668104684;7505205.299328339;data.mos;Нет информации;Пролетарская;Пролетарская, вход-выход 1 в западный вестибюль
769;55.7312101;37.6645773;4192801.5659798905;7505092.214739096;data.mos;Нет информации;Пролетарская;Пролетарская, вход-выход 5 в западный вестибюль
770;55.73131;37.664926;4192840.3830863307;7505111.964882726;data.mos;Нет информации;Пролетарская;Пролетарская, вход-выход 6 в западный вестибюль
630;55.6778375;37.5071875;4175281.0135878352;7494547.716246375;data.mos;Нет информации;Проспект Вернадского;Проспект Вернадского, вход-выход в северный вестибюль
342;55.7819543;37.633349;4189325.247525552;7515130.8133828575;data.mos;Нет информации;Проспект Мира;Проспект Мира, вход 1 в вестибюль
392;55.7795686;37.6335334;4189345.774839653;7514658.563562987;data.mos;Нет информации;Проспект Мира;Проспект Мира, вход 2 в вестибюль
292;55.6772799;37.5618179;4181362.4418976684;7494437.630592938;data.mos;Нет информации;Профсоюзная;Профсоюзная, вход-выход 1 в южный вестибюль
294;55.6770979;37.5623706;4181423.96818023;7494401.699101691;data.mos;Нет информации;Профсоюзная;Профсоюзная, вход-выход 3 в южный вестибюль
296;55.6788868;37.5635613;4181556.5162979173;7494754.881326698;data.mos;Нет информации;Профсоюзная;Профсоюзная, вход-выход 1 в северный вестибюль
298;55.6786988;37.5640979;4181616.2503366773;7494717.763758899;data.mos;Нет информации;Профсоюзная;Профсоюзная, вход-выход 3 в северный вестибюль
788;55.7654151;37.6038161;4186037.660135903;7511857.469637241;data.mos;Нет информации;Пушкинская;Пушкинская, вход-выход 3 в совмещенный вестибюль
798;55.7776089;37.5215541;4176880.2961842665;7514270.662161812;data.mos;Нет информации;Полежаевская;Полежаевская, вход-выход 4 в 1-й вестибюль
565;55.7368106;37.6186237;4187686.034627773;7506199.506760016;data.mos;Нет информации;Полянка;Полянка, вход-выход в вестибюль
522;55.610605;37.6039017;4186047.1890843147;7481285.458640408;data.mos;Нет информации;Пражская;Пражская, вход-выход 7 в южный вестибюль
526;55.613775;37.604379;4186100.32187727;7481910.260574587;data.mos;Нет информации;Пражская;Пражская, вход-выход 3 в северный вестибюль
518;55.6114647;37.604446;4186107.7802831535;7481454.899145098;data.mos;Нет информации;Пражская;Пражская, вход-выход 3 в южный вестибюль
519;55.6110863;37.6047469;4186141.276317933;7481380.318849139;data.mos;Нет информации;Пражская;Пражская, вход-выход 4 в южный вестибюль
524;55.6136747;37.6048726;4186155.2691779253;7481890.490831068;data.mos;Нет информации;Пражская;Пражская, вход-выход 1 в северный вестибюль
517;55.6114306;37.6025606;4185897.898515211;7481448.178216831;data.mos;Нет информации;Пражская;Пражская, вход-выход 2 в южный вестибюль
520;55.6109456;37.6024484;4185885.4084683442;7481352.587934263;data.mos;Нет информации;Пражская;Пражская, вход-выход 5 в южный вестибюль
80;55.795821;37.799007;4207766.211731384;7517876.302200649;data.mos;Нет информации;Первомайская;Первомайская, вход-выход 2 в северный вестибюль
82;55.793647;37.799096;4207776.119166063;7517445.804059638;data.mos;Нет информации;Первомайская;Первомайская, вход-выход 2 в южный вестибюль
79;55.795823;37.79961;4207833.337384331;7517876.698254162;data.mos;Нет информации;Первомайская;Первомайская, вход-выход 1 в северный вестибюль
81;55.79365;37.799751;4207849.033432534;7517446.398106751;data.mos;Нет информации;Первомайская;Первомайская, вход-выход 1 в южный вестибюль
219;55.7511859;37.7844802;4206149.095752527;7509042.418883398;data.mos;Нет информации;Перово;Перово, вход-выход 3 в западный вестибюль
221;55.7506254;37.7847998;4206184.673461786;7508931.55271991;data.mos;Нет информации;Перово;Перово, вход-выход 5 в западный вестибюль
217;55.7511446;37.7850385;4206211.245424237;7509034.249743304;data.mos;Нет информации;Перово;Перово, вход-выход 1 в западный вестибюль
223;55.751753;37.788378;4206582.996863741;7509154.5921394285;data.mos;Нет информации;Перово;Перово, вход-выход 1 в восточный вестибюль
224;55.75124;37.788346;4206579.434640036;7509053.119876606;data.mos;Нет информации;Перово;Перово, вход-выход 2 в восточный вестибюль
839;55.736059;37.467458;4170858.3458783645;7506050.89639028;data.mos;Нет информации;Пионерская;Пионерская, вход-выход в восточный вестибюль
833;55.8618261;37.4361737;4167375.79353254;7530958.169699752;data.mos;Нет информации;Планерная;Планерная, выход 2 из вестибюля
830;55.8595651;37.4367687;4167442.0286295624;7530509.683826424;data.mos;Нет информации;Планерная;Планерная, вход в 1-й вестибюль
200;55.747275;37.6807937;4194606.767370391;7508268.88121922;data.mos;Нет информации;Площадь Ильича;Площадь Ильича, вход-выход 1 в вестибюль
65;55.756397;37.623306;4188207.265879514;7510073.243875304;data.mos;Нет информации;Площадь Революции;Площадь Революции, вход-выход в восточный вестибюль
801;55.7774862;37.5171736;4176392.661154846;7514246.375673943;data.mos;Нет информации;Полежаевская;Полежаевская, вход-выход 3 во 2-й вестибюль
800;55.7776443;37.5172062;4176396.290170246;7514277.669035608;data.mos;Нет информации;Полежаевская;Полежаевская, вход-выход 2 во 2-й вестибюль
802;55.7770229;37.5171557;4176390.6685359613;7514154.673593789;data.mos;Нет информации;Полежаевская;Полежаевская, вход-выход 4 во 2-й вестибюль
799;55.7775861;37.5176384;4176444.402454167;7514266.149263418;data.mos;Нет информации;Полежаевская;Полежаевская, вход-выход 1 во 2-й вестибюль
590;55.836665;37.5756124;4182898.038613416;7525968.751848549;data.mos;Нет информации;Петровско-Разумовская;Петровско-Разумовская, вход в вестибюль
461;55.6926615;37.7278801;4199848.401441679;7497474.959207258;data.mos;Нет информации;Печатники;Печатники, вход-выход 3 в вестибюль
459;55.6928903;37.7278293;4199842.746411547;7497520.148232582;data.mos;Нет информации;Печатники;Печатники, вход-выход 1 в вестибюль
462;55.6924089;37.7285261;4199920.313832732;7497425.069882438;data.mos;Нет информации;Печатники;Печатники, вход-выход 4 в вестибюль
460;55.692675;37.7284457;4199911.363745672;7497477.625510414;data.mos;Нет информации;Печатники;Печатники, вход-выход 2 в вестибюль
838;55.735944;37.466756;4170780.1995958267;7506028.158227965;data.mos;Нет информации;Пионерская;Пионерская, вход-выход в западный вестибюль
797;55.7775229;37.5211113;4176831.0039137434;7514253.639839561;data.mos;Нет информации;Полежаевская;Полежаевская, вход-выход 3 в 1-й вестибюль
796;55.778046;37.5213477;4176857.3198413663;7514357.179684988;data.mos;Нет информации;Полежаевская;Полежаевская, вход-выход 2 в 1-й вестибюль
795;55.777987;37.5210171;4176820.51761771;7514345.5014451565;data.mos;Нет информации;Полежаевская;Полежаевская, вход-выход 1 в 1-й вестибюль
252;55.6196587;37.5071612;4175278.0858852277;7483070.062337021;data.mos;Нет информации;Тёплый стан;Тёплый стан, вход-выход 1 в северный вестибюль
337;55.7654719;37.6366194;4189689.3067882415;7511868.708791463;data.mos;Нет информации;Тургеневская;Тургеневская, вход-выход 6 в вестибюль
336;55.7653368;37.6369063;4189721.2443501498;7511841.976252544;data.mos;Нет информации;Тургеневская;Тургеневская, вход-выход 5 в вестибюль
815;55.8256692;37.4360367;4167360.542762302;7523789.310791378;data.mos;Нет информации;Тушинская;Тушинская, вход-выход 1 в 1-й вестибюль
816;55.8254341;37.4370076;4167468.622855913;7523742.719127164;data.mos;Нет информации;Тушинская;Тушинская, вход-выход 2 в 1-й вестибюль
817;55.8273392;37.4374154;4167514.018944258;7524120.2762723025;data.mos;Нет информации;Тушинская;Тушинская, вход-выход 1 во 2-й вестибюль
820;55.8281911;37.4380376;4167583.28193143;7524289.113777155;data.mos;Нет информации;Тушинская;Тушинская, вход-выход 4 во 2-й вестибюль
90;55.5420806;37.5319534;4178037.9409648725;7467791.737438762;data.mos;Нет информации;Улица Горчакова;Улица Горчакова, вход-выход в вестибюль
784;55.765435;37.560437;4181208.720812832;7511861.407296803;data.mos;Нет информации;Улица 1905 года;Улица 1905 года, вход-выход 1 во 2-й вестибюль
841;55.739437;37.4829878;4172587.115306485;7506718.835081041;data.mos;Нет информации;Филёвский парк;Филёвский парк, вход-выход в западный вестибюль
850;55.746725;37.514093;4176049.730331509;7508160.10283249;data.mos;Нет информации;Фили;Фили, вход в западный вестибюль
847;55.74529;37.515767;4176236.0791590963;7507876.297352074;data.mos;Нет информации;Фили;Фили, вход-выход в восточный вестибюль
645;55.7274309;37.5805775;4183450.7510171533;7504345.107283632;data.mos;Нет информации;Фрунзенская;Фрунзенская, вход-выход в вестибюль
166;55.6222568;37.6682219;4193207.280996036;7483582.258223412;data.mos;Нет информации;Царицыно;Царицыно, вход-выход 1 в северный вестибюль
168;55.6227062;37.6687206;4193262.7960260944;7483670.857499409;data.mos;Нет информации;Царицыно;Царицыно, вход-выход 3 в северный вестибюль
167;55.6224821;37.668925;4193285.5497300127;7483626.676024526;data.mos;Нет информации;Царицыно;Царицыно, вход-выход 2 в северный вестибюль
171;55.6204932;37.6698636;4193390.0342040714;7483234.574038829;data.mos;Нет информации;Царицыно;Царицыно, вход-выход 3 в южный вестибюль
170;55.620199;37.6704;4193449.745978933;7483176.575625162;data.mos;Нет информации;Царицыно;Царицыно, вход-выход 2 в южный вестибюль
254;55.6195654;37.5060675;4175156.335758147;7483051.669574713;data.mos;Нет информации;Тёплый стан;Тёплый стан, вход-выход 3 в северный вестибюль
248;55.617725;37.5087383;4175453.6478541577;7482688.869950472;data.mos;Нет информации;Тёплый стан;Тёплый стан, вход-выход 1 в южный вестибюль
589;55.818659;37.574511;4182775.431326257;7522400.163848568;data.mos;Нет информации;Тимирязевская;Тимирязевская, вход-выход 4 в вестибюль
586;55.818747;37.575101;4182841.109825824;7522417.600449054;data.mos;Нет информации;Тимирязевская;Тимирязевская, вход-выход 1 в вестибюль
489;55.8188162;37.5780576;4183170.2370323045;7522431.311985313;data.mos;Нет информации;Тимирязевская;Тимирязевская, вход-выход в вестибюль
316;55.740683;37.625617;4188464.5252227373;7506965.223746626;data.mos;Нет информации;Третьяковская;Третьяковская, вход-выход в вестибюль
480;55.7678427;37.6218566;4188045.919409558;7512337.839362007;data.mos;Нет информации;Трубная;Трубная, вход-выход 1 в вестибюль
561;55.70783;37.622461;4188113.200909794;7500471.378525416;data.mos;Нет информации;Тульская;Тульская, вход-выход в южный вестибюль
562;55.709564;37.62259;4188127.5611241064;7500813.990834766;data.mos;Нет информации;Тульская;Тульская, вход-выход в северный вестибюль
772;55.732291;37.668333;4193219.6485914625;7505305.910419576;data.mos;Нет информации;Пролетарская;Пролетарская, вход-выход 2 в восточный вестибюль
628;55.6765476;37.5045266;4174984.8035547836;7494293.056714018;data.mos;Нет информации;Проспект Вернадского;Проспект Вернадского, вход-выход 5 в южный вестибюль
629;55.6766633;37.5047335;4175007.835557429;7494315.898535623;data.mos;Нет информации;Проспект Вернадского;Проспект Вернадского, вход-выход 6 в южный вестибюль
627;55.6763594;37.5052562;4175066.022255266;7494255.901881452;data.mos;Нет информации;Проспект Вернадского;Проспект Вернадского, вход-выход 4 в южный вестибюль
626;55.676238;37.5050632;4175044.537593544;7494231.934937642;data.mos;Нет информации;Проспект Вернадского;Проспект Вернадского, вход-выход 3 в южный вестибюль
624;55.6759002;37.5052832;4175069.027881518;7494165.246419511;data.mos;Нет информации;Проспект Вернадского;Проспект Вернадского, вход-выход 1 в южный вестибюль
625;55.6761702;37.5057448;4175120.412958468;7494218.549806994;data.mos;Нет информации;Проспект Вернадского;Проспект Вернадского, вход-выход 2 в южный вестибюль
773;55.732445;37.6680428;4193187.3436752353;7505336.356950536;data.mos;Нет информации;Пролетарская;Пролетарская, вход-выход 3 в восточный вестибюль
771;55.7319672;37.6677589;4193155.740071799;7505241.894014433;data.mos;Нет информации;Пролетарская;Пролетарская, вход-выход 1 в восточный вестибюль
731;55.7007835;37.853893;4213876.093303063;7499079.2525666;data.mos;Нет информации;Лермонтовский проспект;Лермонтовский проспект, вход-выход 1 во 2-й вестибюль
566;55.7505094;37.6091093;4186626.8964645695;7508908.608271284;data.mos;Нет информации;Боровицкая;Боровицкая, вход-выход в вестибюль
668;55.758683;37.617566;4187568.2920023603;7510525.488586983;data.mos;Нет информации;Охотный ряд;Охотный ряд, вход 2 в северный вестибюль
99;55.854241;37.476543;4171869.6834522206;7529453.7127646245;data.mos;Нет информации;Речной вокзал;Речной вокзал, вход в южный вестибюль
359;55.8543991;37.6514459;4191339.785218488;7529485.067909541;data.mos;Нет информации;Свиблово;Свиблово, вход-выход 1 в южный вестибюль
362;55.855739;37.654372;4191665.517180498;7529750.808380688;data.mos;Нет информации;Свиблово;Свиблово, вход-выход 1 в северный вестибюль
543;55.6516395;37.5981861;4185410.9314027363;7489377.20106716;data.mos;Нет информации;Севастопольская;Севастопольская, вход-выход 1 в вестибюль
544;55.651406;37.5981808;4185410.3414094355;7489331.132370498;data.mos;Нет информации;Севастопольская;Севастопольская, вход-выход 2 в вестибюль
546;55.65096;37.5986848;4185466.4464327954;7489243.138963936;data.mos;Нет информации;Севастопольская;Севастопольская, вход-выход 4 в вестибюль
545;55.6511966;37.5986795;4185465.856439494;7489289.818749416;data.mos;Нет информации;Севастопольская;Севастопольская, вход-выход 3 в вестибюль
71;55.78315566;37.71929008;4198892.164789375;7515368.633795473;data.mos;Нет информации;Семёновская;Семеновская, вход в вестибюль
563;55.726855;37.6248829;4188382.8055845466;7504231.264357332;data.mos;Нет информации;Серпуховская;Серпуховская, вход-выход 1 в вестибюль
785;55.765717;37.560177;4181179.7777452264;7511917.207512673;data.mos;Нет информации;Улица 1905 года;Улица 1905 года, вход-выход 2 во 2-й вестибюль
510;55.5942546;37.6011148;4185736.9527954226;7478063.622742004;data.mos;Нет информации;Улица академика Янгеля;Улица академика Янгеля, вход-выход 2 в южный вестибюль
715;55.8149979;37.7321792;4200326.975064549;7521674.776770353;data.mos;Нет информации;Бульвар Рокоссовского;Бульвар Рокоссовского, вход-выход 1 в северный вестибюль
716;55.8154001;37.7329306;4200410.620529931;7521754.46278455;data.mos;Нет информации;Бульвар Рокоссовского;Бульвар Рокоссовского, вход-выход 2 в северный вестибюль
712;55.8132836;37.7351755;4200660.521654813;7521335.139725242;data.mos;Нет информации;Бульвар Рокоссовского;Бульвар Рокоссовского, вход-выход 1 в южный вестибюль
713;55.813449;37.7352186;4200665.319524866;7521367.908114316;data.mos;Нет информации;Бульвар Рокоссовского;Бульвар Рокоссовского, вход-выход 2 в южный вестибюль
564;55.7269036;37.6257356;4188477.7277143453;7504240.871457278;data.mos;Нет информации;Серпуховская;Серпуховская, вход-выход 2 в вестибюль
47;55.728974;37.468856;4171013.9705264936;7504650.152928159;data.mos;Нет информации;Славянский бульвар;Славянский бульвар, вход-выход в западный вестибюль
48;55.729345;37.47293;4171467.4861319847;7504723.495361133;data.mos;Нет информации;Славянский бульвар;Славянский бульвар, вход-выход 1 в восточный вестибюль
49;55.730202;37.473107;4171487.189681855;7504892.917068882;data.mos;Нет информации;Славянский бульвар;Славянский бульвар, вход-выход 2 в восточный вестибюль
50;55.730934;37.472431;4171411.937706079;7505037.6302706655;data.mos;Нет информации;Славянский бульвар;Славянский бульвар, вход-выход 3 в восточный вестибюль
60;55.747952;37.583806;4183810.14599318;7508402.779629826;data.mos;Нет информации;Смоленская;Смоленская, вход 1 в вестибюль
853;55.749036;37.5822488;4183636.799282117;7508617.180151094;data.mos;Нет информации;Смоленская;Смоленская, вход 2 в вестибюль
113;55.8045014;37.51424;4176066.0942966547;7519595.445216218;data.mos;Нет информации;Сокол;Сокол, вход 2 в западный вестибюль
111;55.8055344;37.5150184;4176152.7453882885;7519800.055172406;data.mos;Нет информации;Сокол;Сокол, вход 1 в западный вестибюль
116;55.8042947;37.5158763;4176248.2463794407;7519554.504069484;data.mos;Нет информации;Сокол;Сокол, вход-выход 2 в восточный вестибюль
118;55.8050244;37.5163929;4176305.754028384;7519699.036993716;data.mos;Нет информации;Сокол;Сокол, вход-выход 4 в восточный вестибюль
117;55.804935;37.5167424;4176344.660190416;7519681.329237536;data.mos;Нет информации;Сокол;Сокол, вход-выход 3 в восточный вестибюль
344;55.7926231;37.6359244;4189611.93974214;7517243.058452201;data.mos;Нет информации;Рижская;Рижская, вход в вестибюль
468;55.747281;37.6807937;4194606.767370391;7508270.067900986;data.mos;Нет информации;Римская;Римская, вход-выход 1 в вестибюль
757;55.7162448;37.7926457;4207058.0750546;7502134.158560015;data.mos;Нет информации;Рязанский проспект;Рязанский проспект, вход в западный вестибюль
759;55.717004;37.7931879;4207118.432482508;7502284.1954995915;data.mos;Нет информации;Рязанский проспект;Рязанский проспект, вход в восточный вестибюль
577;55.7942108;37.5887308;4184358.3722214387;7517557.44611782;data.mos;Нет информации;Савёловская;Савёловская, вход-выход 2 в вестибюль
576;55.7940558;37.5871596;4184183.4670375045;7517526.753301509;data.mos;Нет информации;Савёловская;Савёловская, вход-выход 1 в вестибюль
363;55.856086;37.653862;4191608.744240193;7529819.629893557;data.mos;Нет информации;Свиблово;Свиблово, вход-выход 2 в северный вестибюль
361;55.8547925;37.6514186;4191336.746196389;7529563.089424677;data.mos;Нет информации;Свиблово;Свиблово, вход-выход 3 в южный вестибюль
115;55.804217;37.5162194;4176286.440096731;7519539.114057477;data.mos;Нет информации;Сокол;Сокол, вход-выход 1 в восточный вестибюль
691;55.7893271;37.6798987;4194507.136426131;7516590.443483959;data.mos;Нет информации;Сокольники;Сокольники, вход 1 в вестибюль
692;55.789257;37.679521;4194465.091054458;7516576.564135471;data.mos;Нет информации;Сокольники;Сокольники, вход 2 в вестибюль
644;55.7222857;37.5618704;4181368.286170935;7503328.072461824;data.mos;Нет информации;Спортивная;Спортивная, вход-выход в южный вестибюль
643;55.7238319;37.5656975;4181794.31699415;7503633.690664009;data.mos;Нет информации;Спортивная;Спортивная, вход в северный вестибюль
476;55.7660754;37.6371071;4189743.5973039013;7511988.125816262;data.mos;Нет информации;Сретенский бульвар;Сретенский бульвар, вход-выход 3 в вестибюль
477;55.7657548;37.6374965;4189786.945113616;7511924.687146753;data.mos;Нет информации;Сретенский бульвар;Сретенский бульвар, вход-выход 4 в вестибюль
23;55.803709;37.401437;4163508.9217767017;7519438.495430812;data.mos;Нет информации;Строгино;Строгино, вход-выход 1 в западный вестибюль
26;55.804435;37.40193;4163563.8022856624;7519582.293319548;data.mos;Нет информации;Строгино;Строгино, вход-выход 4 в западный вестибюль
340;55.772245;37.632071;4189182.9812163175;7513209.035973875;data.mos;Нет информации;Сухаревская;Сухаревская, вход-выход 3 в вестибюль
341;55.772318;37.632951;4189280.9423682154;7513223.483195433;data.mos;Нет информации;Сухаревская;Сухаревская, вход-выход 4 в вестибюль
826;55.8514481;37.4386091;4167646.901020418;7528899.832566866;data.mos;Нет информации;Сходненская;Сходненская, вход-выход 1 во 2-й вестибюль
827;55.8515991;37.4388612;4167674.964664047;7528929.777451041;data.mos;Нет информации;Сходненская;Сходненская, вход-выход 2 во 2-й вестибюль
821;55.8495377;37.4393008;4167723.9007122;7528520.990251728;data.mos;Нет информации;Сходненская;Сходненская, вход-выход 1 в 1-й вестибюль
726;55.6841436;37.8554017;4214044.041018823;7495792.823943835;data.mos;Нет информации;Жулебино;Жулебино, вход-выход 6 в 1-й вестибюль
28;55.803098;37.404255;4163822.620101757;7519317.477522539;data.mos;Нет информации;Строгино;Строгино, вход-выход 2 в восточный вестибюль
30;55.803813;37.404768;4163879.7270005336;7519459.094412858;data.mos;Нет информации;Строгино;Строгино, вход-выход 4 в восточный вестибюль
840;55.738902;37.548298;4179857.413514093;7506613.044608879;data.mos;Нет информации;Студенческая;Студенческая, вход-выход в вестибюль
216;55.7576076;37.7518838;4202520.481102834;7510312.736394855;data.mos;Нет информации;Шоссе Энтузиастов;Шоссе Энтузиастов, вход-выход 4 в вестибюль
718;55.68613;37.8565123;4214167.672445297;7496185.070205029;data.mos;Нет информации;Жулебино;Жулебино, вход-выход 2 во 2-й вестибюль
719;55.6862993;37.8577516;4214305.6306902375;7496218.50210313;data.mos;Нет информации;Жулебино;Жулебино, вход-выход 3 во 2-й вестибюль
720;55.685954;37.8573862;4214264.954548302;7496150.315402387;data.mos;Нет информации;Жулебино;Жулебино, вход-выход 4 во 2-й вестибюль
721;55.6848651;37.8549507;4213993.8359284755;7495935.293285633;data.mos;Нет информации;Жулебино;Жулебино, вход-выход 1 в 1-й вестибюль
722;55.6848442;37.854404;4213932.977562859;7495931.166278126;data.mos;Нет информации;Жулебино;Жулебино, вход-выход 2 в 1-й вестибюль
723;55.6846472;37.8541303;4213902.509418228;7495892.2658851305;data.mos;Нет информации;Жулебино;Жулебино, вход-выход 3 в 1-й вестибюль
725;55.684466;37.8557874;4214086.976946421;7495856.485595147;data.mos;Нет информации;Жулебино;Жулебино, вход-выход 5 в 1-й вестибюль
727;55.6836776;37.8547418;4213970.5812868485;7495700.807720259;data.mos;Нет информации;Жулебино;Жулебино, вход-выход 7 в 1-й вестибюль
782;55.763895;37.562145;4181398.854503107;7511556.689833591;data.mos;Нет информации;Улица 1905 года;Улица 1905 года, вход в 1-й вестибюль
492;55.8218212;37.6265474;4188568.096876972;7523026.756988535;data.mos;Нет информации;Улица академика Королёва;Улица академика Королёва, вход-выход в вестибюль
512;55.5958068;37.6001871;4185633.681703814;7478369.425079523;data.mos;Нет информации;Улица академика Янгеля;Улица академика Янгеля, вход-выход 1 в северный вестибюль
509;55.5944718;37.6004819;4185666.4986896995;7478106.413064014;data.mos;Нет информации;Улица академика Янгеля;Улица академика Янгеля, вход-выход 1 в южный вестибюль
513;55.5961437;37.6012648;4185753.650719042;7478435.800087629;data.mos;Нет информации;Улица академика Янгеля;Улица академика Янгеля, вход-выход 2 в северный вестибюль
511;55.5941275;37.6018926;4185823.537095362;7478038.583027145;data.mos;Нет информации;Улица академика Янгеля;Улица академика Янгеля, вход-выход 3 в южный вестибюль
515;55.595992;37.6027031;4185913.7615426495;7478405.912546839;data.mos;Нет информации;Улица академика Янгеля;Улица академика Янгеля, вход-выход 4 в северный вестибюль
490;55.821901;37.591282;4184642.3705063504;7523042.570098337;data.mos;Нет информации;Улица Милашенкова;Улица Милашенкова, вход-выход в вестибюль
63;55.756634;37.619562;4187790.4857059848;7510120.128906429;data.mos;Нет информации;Площадь Революции;Площадь Революции, вход в западный (объединенный) вестибюль
471;55.756055;37.6594776;4192233.869972693;7510005.58749714;data.mos;Нет информации;Чкаловская;Чкаловская, вход 1 в вестибюль
863;55.749036;37.537593;4178665.738365151;7508617.180151094;data.mos;Нет информации;Деловой центр;Деловой центр, вход-выход в вестибюль
95;55.5816216;37.5778946;4183152.091955305;7475575.217362807;data.mos;Нет информации;Лесопарковая;Лесопарковая, вход-выход в вестибюль
92;55.5477054;37.5533041;4180414.690016953;7468898.477933649;data.mos;Нет информации;Улица Скобелевская;Улица Скобелевская, вход-выход в южный вестибюль
631;55.6916707;37.534935;4178369.8511586217;7497279.274819418;data.mos;Нет информации;Университет;Университет, вход 1 в южный вестибюль
635;55.6933978;37.5346985;4178343.5240990487;7497620.382700732;data.mos;Нет информации;Университет;Университет, вход 1 в северный вестибюль
842;55.7396228;37.4836294;4172658.5378917786;7506755.575363738;data.mos;Нет информации;Филёвский парк;Филёвский парк, вход-выход в восточный вестибюль
96;55.6004415;37.556297;4180747.8581209476;7479282.589518562;data.mos;Нет информации;Битцевский парк;Битцевский парк, вход-выход в вестибюль
1;55.857343;37.355271;4158369.746164739;7530068.93948224;data.mos;Нет информации;Пятницкое шоссе;Пятницкое шоссе, вход в северный вестибюль
3;55.854904;37.352861;4158101.4661919274;7529585.202936255;data.mos;Нет информации;Пятницкое шоссе;Пятницкое шоссе, вход-выход 1 в южный вестибюль
8;55.845982;37.360024;4158898.84770448;7527815.925919247;data.mos;Нет информации;Митино;Митино, вход-выход 2 в северный вестибюль
10;55.846461;37.359332;4158821.814616851;7527910.903687047;data.mos;Нет информации;Митино;Митино, вход-выход 4 в северный вестибюль
16;55.84469;37.363736;4159312.065654305;7527559.749550478;data.mos;Нет информации;Митино;Митино, вход-выход 3 в южный вестибюль
18;55.836515;37.381302;4161267.503829579;7525939.016699991;data.mos;Нет информации;Волоколамская;Волоколамская, выход из северного вестибюля
20;55.834595;37.383357;4161496.2653831583;7525558.4169288045;data.mos;Нет информации;Волоколамская;Волоколамская, выход из южного вестибюля
22;55.826261;37.385342;4161717.2345723836;7523906.593819622;data.mos;Нет информации;Мякинино;Мякинино, вход-выход 2
714;55.8141349;37.7356549;4200713.888218699;7521503.797376017;data.mos;Нет информации;Бульвар Рокоссовского;Бульвар Рокоссовского, вход-выход 3 в южный вестибюль
494;55.8294285;37.6449918;4190621.3180929585;7524534.35986182;data.mos;Нет информации;Улица Сергея Эйзенштейна;Улица Сергея Эйзенштейна, вход-выход в вестибюль
24;55.803867;37.400553;4163410.51534684;7519469.790059855;data.mos;Нет информации;Строгино;Строгино, вход-выход 2 в западный вестибюль
25;55.804598;37.401208;4163483.429613309;7519614.578889077;data.mos;Нет информации;Строгино;Строгино, вход-выход 3 в западный вестибюль
27;55.802894;37.405145;4163921.6944485623;7519277.0726209115;data.mos;Нет информации;Строгино;Строгино, вход-выход 1 в восточный вестибюль
29;55.803625;37.405607;4163973.1240533097;7519421.857831637;data.mos;Нет информации;Строгино;Строгино, вход-выход 3 в восточный вестибюль
40;55.741336;37.415801;4165107.914942456;7507094.353532526;data.mos;Нет информации;Молодёжная;Молодёжная, выход из западного вестибюля
42;55.740298;37.418016;4165354.487614563;7506889.091577551;data.mos;Нет информации;Молодёжная;Молодёжная, выход из восточного вестибюля
56;55.743095;37.564813;4181695.8549045436;7507442.203935516;data.mos;Нет информации;Киевская;Киевская, вход 1 в вестибюль с пригородных поездов
169;55.6197162;37.6706788;4193480.7818529652;7483081.397662496;data.mos;Нет информации;Царицыно;Царицыно, вход-выход 1 в южный вестибюль
711;55.805133;37.7445447;4201703.496227953;7519720.547812636;data.mos;Нет информации;Черкизовская;Черкизовская, вход-выход 2 в северный вестибюль
710;55.8048131;37.7445503;4201704.119617101;7519657.184163483;data.mos;Нет информации;Черкизовская;Черкизовская, вход-выход 1 в северный вестибюль
708;55.8027347;37.7444641;4201694.523876995;7519245.521293466;data.mos;Нет информации;Черкизовская;Черкизовская, вход в южный вестибюль
540;55.640746;37.6050806;4186178.4236320104;7487228.2458250355;data.mos;Нет информации;Чертановская;Чертановская, вход-выход 3 в северный вестибюль
536;55.6399002;37.608036;4186507.4172551003;7487061.420289847;data.mos;Нет информации;Чертановская;Чертановская, вход в южный вестибюль
787;55.7653;37.604;4186058.131790259;7511834.69457036;data.mos;Нет информации;Пушкинская;Пушкинская, вход-выход 2 в совмещенный вестибюль
786;55.7653257;37.6050054;4186170.0524063036;7511839.7798748575;data.mos;Нет информации;Пушкинская;Пушкинская, вход-выход 4 в совмещенный вестибюль
569;55.7658652;37.6084435;4186552.779947599;7511946.532468757;data.mos;Нет информации;Чеховская;Чеховская, вход-выход 3 в вестибюль
822;55.8492989;37.4393629;4167730.8136525783;7528473.636271677;data.mos;Нет информации;Сходненская;Сходненская, вход-выход 2 в 1-й вестибюль
829;55.851709;37.440023;4167804.29564845;7528951.571847182;data.mos;Нет информации;Сходненская;Сходненская, вход-выход 4 во 2-й вестибюль
828;55.8515441;37.4403099;4167836.2332103597;7528918.870360551;data.mos;Нет информации;Сходненская;Сходненская, вход-выход 3 во 2-й вестибюль
825;55.849722;37.44072;4167881.8853335334;7528557.537094389;data.mos;Нет информации;Сходненская;Сходненская, вход-выход 5 в 1-й вестибюль
823;55.8492661;37.4406824;4167877.6997206802;7528467.132062637;data.mos;Нет информации;Сходненская;Сходненская, вход-выход 3 в 1-й вестибюль
824;55.8496176;37.4410096;4167914.1234580674;7528536.834466634;data.mos;Нет информации;Сходненская;Сходненская, вход-выход 4 в 1-й вестибюль
774;55.7393895;37.6529419;4191506.3191767144;7506709.442410363;data.mos;Нет информации;Таганская;Таганская, вход-выход 1 в вестибюль
776;55.7396869;37.6534996;4191568.4020567304;7506768.250604111;data.mos;Нет информации;Таганская;Таганская, вход-выход 3 в вестибюль
775;55.7395075;37.653618;4191581.5822844403;7506732.775802807;data.mos;Нет информации;Таганская;Таганская, вход-выход 2 в вестибюль
680;55.7649693;37.6382452;4189870.290016373;7511769.2586749615;data.mos;Нет информации;Чистые пруды;Чистые пруды, вход в вестибюль
213;55.758527;37.751631;4202492.339535561;7510494.625900365;data.mos;Нет информации;Шоссе Энтузиастов;Шоссе Энтузиастов, вход-выход 1 в вестибюль
420;55.7423722;37.6535961;4191579.144387592;7507299.264987563;data.mos;Нет информации;Таганская;Таганская, вход в вестибюль
746;55.7085789;37.7287994;4199950.737449566;7500619.34803172;data.mos;Нет информации;Текстильщики;Текстильщики, вход-выход 4 в западный вестибюль
749;55.7095502;37.7331986;4200440.454153463;7500811.2641023835;data.mos;Нет информации;Текстильщики;Текстильщики, вход-выход 3 в восточный вестибюль
748;55.7090224;37.733577;4200482.577448779;7500706.977191041;data.mos;Нет информации;Текстильщики;Текстильщики, вход-выход 2 в восточный вестибюль
743;55.7083382;37.7298615;4200068.969880736;7500571.7896236675;data.mos;Нет информации;Текстильщики;Текстильщики, вход-выход 1 в западный вестибюль
750;55.7095572;37.7335712;4200481.931795733;7500812.647227385;data.mos;Нет информации;Текстильщики;Текстильщики, вход-выход 4 в восточный вестибюль
747;55.7090285;37.7332301;4200443.960717424;7500708.182469388;data.mos;Нет информации;Текстильщики;Текстильщики, вход-выход 1 в восточный вестибюль
186;55.611579;37.720775;4199057.465327645;7481477.427108576;data.mos;Нет информации;Домодедовская;Домодедовская, вход-выход 3 в южный вестибюль
196;55.6334736;37.7650605;4203987.3046371685;7485793.955785708;data.mos;Нет информации;Алма-Атинская;Алма-Атинская, вход в южный вестибюль
201;55.7464401;37.6790124;4194408.473961441;7508103.756231048;data.mos;Нет информации;Площадь Ильича;Площадь Ильича, вход-выход 2 в вестибюль
202;55.746918;37.680107;4194530.324276063;7508198.273982652;data.mos;Нет информации;Площадь Ильича;Площадь Ильича, вход-выход 3 в вестибюль
203;55.7464581;37.6812921;4194662.249004602;7508107.31620071;data.mos;Нет информации;Площадь Ильича;Площадь Ильича, вход-выход 4 в вестибюль
214;55.758464;37.7513205;4202457.77483367;7510482.16215807;data.mos;Нет информации;Шоссе Энтузиастов;Шоссе Энтузиастов, вход-выход 2 в вестибюль
215;55.758443;37.751679;4202497.682871119;7510478.007581782;data.mos;Нет информации;Шоссе Энтузиастов;Шоссе Энтузиастов, вход-выход 3 в вестибюль
218;55.7512317;37.7847758;4206182.001794006;7509051.478133616;data.mos;Нет информации;Перово;Перово, вход-выход 2 в западный вестибюль
184;55.610832;37.720523;4199029.412815964;7481330.198298757;data.mos;Нет информации;Домодедовская;Домодедовская, вход-выход 1 из южного вестибюля
312;55.718765;37.6081344;4186518.371092995;7502632.224444109;data.mos;Нет информации;Шаболовская;Шаболовская, вход в вестибюль
431;55.6221781;37.7439051;4201632.296281641;7483566.742611371;data.mos;Нет информации;Шипиловская;Шипиловская, вход-выход 1 в северный вестибюль
428;55.62029;37.7442272;4201668.152289625;7483194.515264741;data.mos;Нет информации;Шипиловская;Шипиловская, вход-выход 1 в южный вестибюль
432;55.6221086;37.7425049;4201476.426730633;7483553.040794365;data.mos;Нет информации;Шипиловская;Шипиловская, вход-выход 2 в северный вестибюль
86;55.810383;37.798293;4207686.729614957;7520760.507042942;data.mos;Нет информации;Щёлковская;Щёлковская, вход-выход 4 в северный вестибюль
85;55.810051;37.798307;4207688.288087828;7520694.7378475275;data.mos;Нет информации;Щёлковская;Щёлковская, вход-выход 3 в северный вестибюль
87;55.808367;37.798438;4207702.870941121;7520361.146109737;data.mos;Нет информации;Щёлковская;Щёлковская, вход-выход 1 в южный вестибюль
83;55.81041;37.798843;4207747.955334893;7520765.855767235;data.mos;Нет информации;Щёлковская;Щёлковская, вход-выход 1 в северный вестибюль
84;55.810063;37.798851;4207748.845890819;7520697.11503759;data.mos;Нет информации;Щёлковская;Щёлковская, вход-выход 2 в северный вестибюль
88;55.808374;37.798854;4207749.179849292;7520362.532743862;data.mos;Нет информации;Щёлковская;Щёлковская, вход-выход 2 в южный вестибюль
811;55.8089913;37.4629558;4170357.1632669154;7520484.815045026;data.mos;Нет информации;Щукинская;Щукинская, вход-выход 1 во 2-й вестибюль
812;55.8093474;37.4632352;4170388.2659326424;7520555.3565514395;data.mos;Нет информации;Щукинская;Щукинская, вход-выход 2 во 2-й вестибюль
814;55.8077329;37.4654909;4170639.3693080246;7520235.537901635;data.mos;Нет информации;Щукинская;Щукинская, вход-выход 2 в 1-й вестибюль
813;55.807997;37.465866;4170681.125249021;7520287.852946744;data.mos;Нет информации;Щукинская;Щукинская, вход-выход 1 в 1-й вестибюль
69;55.782136;37.705514;4197358.618578647;7515166.782121253;data.mos;Нет информации;Электрозаводская;Электрозаводская, вход в вестибюль
618;55.6627839;37.4820889;4172487.0502162115;7491576.269993033;data.mos;Нет информации;Юго-Западная;Юго-Западная, вход-выход 3 в южный вестибюль
619;55.6629904;37.4821613;4172495.1097473456;7491617.023517344;data.mos;Нет информации;Юго-Западная;Юго-Западная, вход-выход 4 в южный вестибюль
616;55.6625384;37.4831377;4172603.8020981555;7491527.819956971;data.mos;Нет информации;Юго-Западная;Юго-Западная, вход-выход 1 в южный вестибюль
621;55.6645394;37.4842914;4172732.231394683;7491922.7311441265;data.mos;Нет информации;Юго-Западная;Юго-Западная, вход-выход 2 в северный вестибюль
620;55.6643713;37.4841919;4172721.155105349;7491889.554669843;data.mos;Нет информации;Юго-Западная;Юго-Западная, вход-выход 1 в северный вестибюль
617;55.6627638;37.4832504;4172616.347804768;7491572.303196583;data.mos;Нет информации;Юго-Западная;Юго-Западная, вход-выход 2 в южный вестибюль
622;55.6646016;37.4831888;4172609.490524135;7491935.007067813;data.mos;Нет информации;Юго-Западная;Юго-Западная, вход-выход 3 в северный вестибюль
623;55.6647681;37.4833208;4172624.18469692;7491967.867956338;data.mos;Нет информации;Юго-Западная;Юго-Западная, вход-выход 4 в северный вестибюль
528;55.6213608;37.6077169;4186471.895205589;7483405.614723276;data.mos;Нет информации;Южная;Южная, вход-выход 1 в южный вестибюль
532;55.6235439;37.6090425;4186619.4603225845;7483836.012888937;data.mos;Нет информации;Южная;Южная, вход-выход 1 в северный вестибюль
530;55.6209851;37.6090099;4186615.831307184;7483331.547885651;data.mos;Нет информации;Южная;Южная, вход-выход 3 в южный вестибюль
534;55.623323;37.6098201;4186706.022358625;7483792.4613638185;data.mos;Нет информации;Южная;Южная, вход-выход 3 в северный вестибюль
474;55.7662971;37.6364478;4189670.204363621;7512031.994970491;data.mos;Нет информации;Сретенский бульвар;Сретенский бульвар, вход-выход 1 в вестибюль
572;55.7715912;37.6207183;4187919.204433189;7513079.645489018;data.mos;Нет информации;Цветной бульвар;Цветной бульвар, выход из вестибюля
578;55.7940228;37.5897883;4184476.092582953;7517520.21871768;data.mos;Нет информации;Савёловская;Савёловская, вход-выход 3 в вестибюль
579;55.7939837;37.5899754;4184496.9204596803;7517512.476233097;data.mos;Нет информации;Савёловская;Савёловская, вход-выход 4 в вестибюль
580;55.7938965;37.5902811;4184530.9508280153;7517495.209134352;data.mos;Нет информации;Савёловская;Савёловская, вход-выход 5 в вестибюль
581;55.7936152;37.5900074;4184500.482683385;7517439.507163035;data.mos;Нет информации;Савёловская;Савёловская, вход-выход 6 в вестибюль
587;55.8190858;37.5749218;4182821.161373074;7522484.7317290865;data.mos;Нет информации;Тимирязевская;Тимирязевская, вход-выход 2 в вестибюль
588;55.8189829;37.5743134;4182753.4345948757;7522464.342621485;data.mos;Нет информации;Тимирязевская;Тимирязевская, вход-выход 3 в вестибюль
429;55.6201443;37.7432401;4201558.268820264;7483165.792147562;data.mos;Нет информации;Шипиловская;Шипиловская, вход-выход 2 в южный вестибюль
242;55.6055443;37.5348837;4178364.1404687446;7480288.107423782;data.mos;Нет информации;Ясенево;Ясенево, вход-выход 3 в южный вестибюль
240;55.6061274;37.5351978;4178399.1059208023;7480403.016882599;data.mos;Нет информации;Ясенево;Ясенево, вход-выход 1 в южный вестибюль
244;55.6066073;37.5329575;4178149.716865578;7480497.590363241;data.mos;Нет информации;Ясенево;Ясенево, вход-выход 1 в северный вестибюль
246;55.6065836;37.5314215;4177978.73012772;7480492.919797444;data.mos;Нет информации;Ясенево;Ясенево, вход-выход 3 в северный вестибюль
245;55.6068801;37.5316246;4178001.3391163;7480551.351340691;data.mos;Нет информации;Ясенево;Ясенево, вход-выход 2 в северный вестибюль
247;55.606294;37.5312065;4177954.7964371997;7480435.84847032;data.mos;Нет информации;Ясенево;Ясенево, вход-выход 4 в северный вестибюль
243;55.6056622;37.5343397;4178303.5826657526;7480311.341422845;data.mos;Нет информации;Ясенево;Ясенево, вход-выход 4 в южный вестибюль
241;55.6062454;37.5346237;4178335.1974011376;7480426.270933924;data.mos;Нет информации;Ясенево;Ясенево, вход-выход 2 в южный вестибюль
571;55.77174;37.620712;4187918.5031203963;7513109.093606832;data.mos;Нет информации;Цветной бульвар;Цветной бульвар, вход в вестибюль
120;55.8000529;37.5341845;4178286.3058807817;7518714.377144804;data.mos;Нет информации;Аэропорт;Аэропорт, выход из южного вестибюля
179;55.6099419;37.7172912;4198669.650485618;7481154.769077532;data.mos;Нет информации;Домодедовская;Домодедовская, вход-выход 4 в северный вестибюль
181;55.610644;37.716669;4198600.387498447;7481293.145171215;data.mos;Нет информации;Домодедовская;Домодедовская, вход-выход 6 в северный вестибюль
183;55.6112163;37.7180771;4198757.136473433;7481405.940962689;data.mos;Нет информации;Домодедовская;Домодедовская, вход-выход 8 в северный вестибюль
498;55.5686707;37.5752373;4182856.2826724197;7473025.024212125;data.mos;Нет информации;Бульвар Дмитрия Донского;Бульвар Дмитрия Донского, вход-выход 4 в южный вестибюль
497;55.5685216;37.5759726;4182938.1358939996;7472995.669465873;data.mos;Нет информации;Бульвар Дмитрия Донского;Бульвар Дмитрия Донского, вход-выход 3 в южный вестибюль
93;55.5484399;37.5562869;4180746.7337940917;7469043.010476563;data.mos;Нет информации;Улица Скобелевская;Улица Скобелевская, вход-выход в северный вестибюль
752;55.7154339;37.8186793;4209956.122150116;7501973.907626029;data.mos;Нет информации;Выхино;Выхино, вход-выход 2 в вестибюль
717;55.6864963;37.856904;4214211.276289841;7496257.404139588;data.mos;Нет информации;Жулебино;Жулебино, вход-выход 1 во 2-й вестибюль
143;55.654154;37.6477302;4190926.1553865476;7489873.320137336;data.mos;Нет информации;Каширская;Каширская, выход 1 из южного вестибюля
144;55.6543598;37.6473058;4190878.911394655;7489913.9265607335;data.mos;Нет информации;Каширская;Каширская, выход 2 из южного вестибюля
146;55.6557509;37.6500394;4191183.214354687;7490188.410271231;data.mos;Нет информации;Каширская;Каширская, выход 1 из северного вестибюля
147;55.6559507;37.6496074;4191135.1243346645;7490227.8344388995;data.mos;Нет информации;Каширская;Каширская, выход 2 из северного вестибюля
148;55.6365141;37.6555602;4191797.786999458;7486393.582226859;data.mos;Нет информации;Кантемировская;Кантемировская, вход-выход 1 в северный вестибюль
153;55.6348855;37.6578451;4192052.140903973;7486072.395179431;data.mos;Нет информации;Кантемировская;Кантемировская, вход-выход 3 в южный вестибюль
155;55.7063464;37.65718;4191978.1023106454;7500178.253557885;data.mos;Нет информации;Автозаводская;Автозаводская, выход из южного вестибюля
175;55.612338;37.69575;4196271.695070541;7481627.023912403;data.mos;Нет информации;Орехово;Орехово, выход из южного вестибюля
176;55.6100889;37.7182568;4198777.140585928;7481183.740935968;data.mos;Нет информации;Домодедовская;Домодедовская, вход-выход 1 в северный вестибюль
475;55.7663191;37.6366915;4189697.3329235273;7512036.348260562;data.mos;Нет информации;Сретенский бульвар;Сретенский бульвар, вход-выход 2 в вестибюль
478;55.7653338;37.6369278;4189723.6377192023;7511841.382636891;data.mos;Нет информации;Сретенский бульвар;Сретенский бульвар, вход-выход 5 в вестибюль
479;55.765481;37.636606;4189687.815107065;7511870.509432129;data.mos;Нет информации;Сретенский бульвар;Сретенский бульвар, вход-выход 6 в вестибюль
481;55.7678481;37.62208;4188070.788183802;7512338.90793898;data.mos;Нет информации;Трубная;Трубная, вход-выход 2 в вестибюль
482;55.7816457;37.6141122;4187183.8167450596;7515069.724319385;data.mos;Нет информации;Достоевская;Достоевская, вход-выход 1 в вестибюль
483;55.7812483;37.6139377;4187164.3914939156;7514991.057521294;data.mos;Нет информации;Достоевская;Достоевская, вход-выход 2 в вестибюль
484;55.781203;37.6135538;4187121.6559414;7514982.090269885;data.mos;Нет информации;Достоевская;Достоевская, вход-выход 3 в вестибюль
486;55.793738;37.6159976;4187393.6985130007;7517463.823509138;data.mos;Нет информации;Марьина роща;Марьина роща, вход-выход 2 в южный вестибюль
495;55.5679508;37.5766378;4183012.185619276;7472883.291628124;data.mos;Нет информации;Бульвар Дмитрия Донского;Бульвар Дмитрия Донского, вход-выход 1 в южный вестибюль
496;55.5682907;37.5768837;4183039.559082062;7472950.210189403;data.mos;Нет информации;Бульвар Дмитрия Донского;Бульвар Дмитрия Донского, вход-выход 2 в южный вестибюль
499;55.5699197;37.5779622;4183159.6171528823;7473270.9311915105;data.mos;Нет информации;Бульвар Дмитрия Донского;Бульвар Дмитрия Донского, вход-выход 1 в северный вестибюль
500;55.5702545;37.5782141;4183187.658532613;7473336.848979085;data.mos;Нет информации;Бульвар Дмитрия Донского;Бульвар Дмитрия Донского, вход-выход 2 в северный вестибюль
503;55.5706249;37.5766966;4183018.731205334;7473409.776600707;data.mos;Нет информации;Бульвар Дмитрия Донского;Бульвар Дмитрия Донского, вход-выход 5 в северный вестибюль
506;55.5835081;37.5971905;4185300.101717703;7475946.762849968;data.mos;Нет информации;Аннино;Аннино, вход-выход 2 в северный вестибюль
514;55.596086;37.601979;4185833.1550993663;7478424.4321695715;data.mos;Нет информации;Улица академика Янгеля;Улица академика Янгеля, вход-выход 3 в северный вестибюль
521;55.6104776;37.602867;4185932.006807191;7481260.349359711;data.mos;Нет информации;Пражская;Пражская, вход-выход 6 в южный вестибюль
523;55.6106299;37.6044868;4186112.322118377;7481290.3661938105;data.mos;Нет информации;Пражская;Пражская, вход-выход 8 в южный вестибюль
525;55.613286;37.6047011;4186136.1778852544;7481813.876161188;data.mos;Нет информации;Пражская;Пражская, вход-выход 2 в северный вестибюль
527;55.613371;37.60417;4186077.0561036943;7481830.63001177;data.mos;Нет информации;Пражская;Пражская, вход-выход 4 в северный вестибюль
529;55.6211368;37.6079826;4186501.4727942925;7483361.454479118;data.mos;Нет информации;Южная;Южная, вход-выход 2 в южный вестибюль
531;55.6216015;37.6092995;4186648.069431718;7483453.0675526215;data.mos;Нет информации;Южная;Южная, вход-выход 4 в южный вестибюль
533;55.6233815;37.6085884;4186568.9101418154;7483803.994903618;data.mos;Нет информации;Южная;Южная, вход-выход 2 в северный вестибюль
535;55.6228155;37.6097177;4186694.623242768;7483692.406164028;data.mos;Нет информации;Южная;Южная, вход-выход 4 в северный вестибюль
537;55.6398206;37.6079182;4186494.303819086;7487045.720176644;data.mos;Нет информации;Чертановская;Чертановская, выход из южного вестибюля
538;55.641717;37.6049276;4186161.39174992;7487419.770241293;data.mos;Нет информации;Чертановская;Чертановская, вход-выход 1 в северный вестибюль
539;55.6418638;37.6052253;4186194.5315623283;7487448.726148066;data.mos;Нет информации;Чертановская;Чертановская, вход-выход 2 в северный вестибюль
541;55.6405152;37.6055584;4186231.6120847114;7487182.722491182;data.mos;Нет информации;Чертановская;Чертановская, вход-выход 4 в северный вестибюль
542;55.6404472;37.605735;4186251.2711067856;7487169.310121616;data.mos;Нет информации;Чертановская;Чертановская, вход-выход 5 в северный вестибюль
557;55.68186;37.620974;4187947.668826984;7495341.915434438;data.mos;Нет информации;Нагатинская;Нагатинская, вход-выход 4 в южный вестибюль
559;55.684112;37.6236051;4188240.5615392104;7495786.584182431;data.mos;Нет информации;Нагатинская;Нагатинская, вход-выход 2 в северный вестибюль
560;55.6838692;37.623651;4188245.6711038384;7495738.640867438;data.mos;Нет информации;Нагатинская;Нагатинская, вход-выход 3 в северный вестибюль
567;55.7660404;37.6081884;4186524.382345498;7511981.200171956;data.mos;Нет информации;Чеховская;Чеховская, вход-выход 1 в вестибюль
568;55.7659046;37.6078828;4186490.3631091113;7511954.328730897;data.mos;Нет информации;Чеховская;Чеховская, вход-выход 2 в вестибюль
570;55.765702;37.6080783;4186512.126069562;7511914.239405922;data.mos;Нет информации;Чеховская;Чеховская, вход-выход 4 в вестибюль
122;55.8009779;37.5321144;4178055.86340289;7518897.573972935;data.mos;Нет информации;Аэропорт;Аэропорт, выход 1 из северного вестибюля
126;55.790543;37.5566397;4180786.0073104426;7516831.1878262665;data.mos;Нет информации;Динамо;Динамо, выход из северного вестибюля
128;55.7889368;37.5597027;4181126.9789107423;7516513.166915491;data.mos;Нет информации;Динамо;Динамо, выход из южного вестибюля
130;55.7775707;37.5821305;4183623.6301863557;7514263.101079151;data.mos;Нет информации;Белорусская;Белорусская, выход из вестибюля
132;55.771119;37.594597;4185011.39461833;7512986.195956306;data.mos;Нет информации;Маяковская;Маяковская, выход из северного вестибюля
133;55.769542;37.597155;4185296.149875779;7512674.112009707;data.mos;Нет информации;Маяковская;Маяковская, вход-выход 1 в южный вестибюль
138;55.7424006;37.6290579;4188847.564458608;7507304.881243793;data.mos;Нет информации;Новокузнецкая;Новокузнецкая, выход из вестибюля
76;55.7876901;37.7798972;4205638.918526222;7516266.334546377;data.mos;Нет информации;Измайловская;Измайловская, вход-выход 2 в западный вестибюль
78;55.7877293;37.7833601;4206024.406790891;7516274.095578631;data.mos;Нет информации;Измайловская;Измайловская, вход-выход 2 в восточный вестибюль
58;55.743086;37.564826;4181697.3020579233;7507440.424103892;data.mos;Нет информации;Киевская;Киевская, вход 2 в вестибюль с площади
61;55.747894;37.583556;4183782.3161204816;7508391.308183116;data.mos;Нет информации;Смоленская;Смоленская, выход 1 из вестибюля
64;55.756604;37.619705;4187806.404393168;7510114.194076615;data.mos;Нет информации;Площадь Революции;Площадь Революции, выход из западного (объединенного) вестибюля
68;55.772378;37.679156;4194424.459440319;7513235.357644372;data.mos;Нет информации;Бауманская;Бауманская, выход из вестибюля
70;55.781959;37.705227;4197326.669884791;7515131.743777391;data.mos;Нет информации;Электрозаводская;Электрозаводская, выход из вестибюля
72;55.783123;37.719345;4198898.27845581;7515362.168347012;data.mos;Нет информации;Семёновская;Семеновская, выход из вестибюля
74;55.788419;37.749668;4202273.819375134;7516410.6474669725;data.mos;Нет информации;Партизанская;Партизанская, выход из вестибюля
100;55.854286;37.476757;4171893.5058232504;7529462.637365939;data.mos;Нет информации;Речной вокзал;Речной вокзал, выход из южного вестибюля
102;55.8405921;37.4863027;4172956.1282865163;7526747.278677126;data.mos;Нет информации;Водный стадион;Водный стадион, выход из северного вестибюля
104;55.839147;37.487499;4173089.299793352;7526460.786092544;data.mos;Нет информации;Водный стадион;Водный стадион, выход из южного вестибюля
105;55.8196524;37.4967874;4174123.279751637;7522597.001580934;data.mos;Нет информации;Войковская;Войковская, вход-выход 1 в северный вестибюль
112;55.8054549;37.5153342;4176187.9000834813;7519784.308133957;data.mos;Нет информации;Сокол;Сокол, выход 1 из западного вестибюля
114;55.8044414;37.514484;4176093.256252409;7519583.560971262;data.mos;Нет информации;Сокол;Сокол, выход 2 из западного вестибюля
140;55.7298459;37.6387336;4189924.658455677;7504822.518635792;data.mos;Нет информации;Павелецкая;Павелецкая, выход 1 из вестибюля
98;55.855784;37.475765;4171783.076888384;7529759.73332606;data.mos;Нет информации;Речной вокзал;Речной вокзал, выход из северного вестибюля
141;55.7298362;37.6384791;4189896.3276452697;7504820.60102388;data.mos;Нет информации;Павелецкая;Павелецкая, выход 2 из вестибюля
334;55.7660845;37.6371339;4189746.580666255;7511989.926484801;data.mos;Нет информации;Тургеневская;Тургеневская, вход-выход 3 в вестибюль
335;55.7657457;37.6375314;4189790.830163845;7511922.88649344;data.mos;Нет информации;Тургеневская;Тургеневская, вход-выход 4 в вестибюль
338;55.7729952;37.6328063;4189264.834437898;7513357.507203529;data.mos;Нет информации;Сухаревская;Сухаревская, вход-выход 1 в вестибюль
339;55.7730522;37.6319533;4189169.878912251;7513368.788125577;data.mos;Нет информации;Сухаревская;Сухаревская, вход-выход 2 в вестибюль
343;55.7818013;37.6332921;4189318.913446525;7515100.526132782;data.mos;Нет информации;Проспект Мира;Проспект Мира, выход 1 из вестибюля
345;55.7923792;37.6359861;4189618.8081547217;7517194.763844473;data.mos;Нет информации;Рижская;Рижская, выход из вестибюля
347;55.8077181;37.6385304;4189902.0383351473;7520232.606209498;data.mos;Нет информации;Алексеевская;Алексеевская, выход из вестибюля
353;55.8223092;37.641681;4190252.7615228407;7523123.459219937;data.mos;Нет информации;ВДНХ;ВДНХ, выход из северного вестибюля
355;55.8438661;37.6377148;4189811.246158456;7527396.391991626;data.mos;Нет информации;Ботанический сад;Ботанический сад, выход из южного вестибюля
358;55.846664;37.6393029;4189988.032641785;7527951.1555785015;data.mos;Нет информации;Ботанический сад;Ботанический сад, вход-выход 3 в северный вестибюль
222;55.7506879;37.785092;4206217.201016994;7508943.9150588745;data.mos;Нет информации;Перово;Перово, вход-выход 6 в западный вестибюль
225;55.752147;37.815213;4209570.255399179;7509232.526908134;data.mos;Нет информации;Новогиреево;Новогиреево, вход-выход 1 в западный вестибюль
227;55.7518282;37.8143874;4209478.35002758;7509169.466938051;data.mos;Нет информации;Новогиреево;Новогиреево, вход-выход 3 в западный вестибюль
230;55.751609;37.8188234;4209972.1632887395;7509126.108562514;data.mos;Нет информации;Новогиреево;Новогиреево, вход-выход 2 в восточный вестибюль
231;55.7513073;37.8181855;4209901.152585562;7509066.431853752;data.mos;Нет информации;Новогиреево;Новогиреево, вход-выход 3 в восточный вестибюль
249;55.6178525;37.5082986;4175404.700674056;7482714.003585321;data.mos;Нет информации;Тёплый стан;Тёплый стан, вход-выход 2 в южный вестибюль
250;55.6174952;37.5078859;4175358.759120205;7482643.5704762;data.mos;Нет информации;Тёплый стан;Тёплый стан, вход-выход 3 в южный вестибюль
251;55.6173485;37.5083041;4175405.312931255;7482614.652282263;data.mos;Нет информации;Тёплый стан;Тёплый стан, вход-выход 4 в южный вестибюль
255;55.620127;37.5054604;4175088.7536952863;7483162.381654123;data.mos;Нет информации;Тёплый стан;Тёплый стан, вход-выход 4 в северный вестибюль
257;55.6319047;37.5191258;4176609.9790647724;7485484.566346933;data.mos;Нет информации;Коньково;Коньково, вход-выход 1 в южный вестибюль
260;55.6321937;37.5178067;4176463.1375244674;7485541.556650649;data.mos;Нет информации;Коньково;Коньково, вход-выход 4 в южный вестибюль
263;55.6341265;37.5191636;4176614.1869415245;7485922.712297749;data.mos;Нет информации;Коньково;Коньково, вход-выход 3 в северный вестибюль
266;55.6347764;37.5193886;4176639.233826953;7486050.879319309;data.mos;Нет информации;Коньково;Коньково, вход-выход 6 в северный вестибюль
268;55.64166;37.5252102;4177287.2913745553;7487408.527173225;data.mos;Нет информации;Беляево;Беляево, вход-выход 2 в южный вестибюль
270;55.6417111;37.5259728;4177372.183618234;7487418.606484367;data.mos;Нет информации;Беляево;Беляево, вход-выход 4 в южный вестибюль
272;55.6436215;37.526597;4177441.669244388;7487795.4361937;data.mos;Нет информации;Беляево;Беляево, вход-выход 2 в северный вестибюль
274;55.6436769;37.5273536;4177525.8935711216;7487806.364213897;data.mos;Нет информации;Беляево;Беляево, вход-выход 4 в северный вестибюль
283;55.6576866;37.541689;4179121.7029994396;7490570.367495001;data.mos;Нет информации;Калужская;Калужская, вход-выход 3 в северный вестибюль
287;55.669269;37.5539665;4180488.428047654;7492856.2306800885;data.mos;Нет информации;Новые Черёмушки;Новые Черёмушки, вход-выход 3 в южный вестибюль
289;55.6710722;37.5551472;4180619.862970434;7493212.164982763;data.mos;Нет информации;Новые Черёмушки;Новые Черёмушки, вход-выход 2 в северный вестибюль
389;55.77942;37.6010664;4185731.5649320683;7514629.149118075;data.mos;Нет информации;Новослободская;Новослободская, выход из вестибюля
391;55.729146;37.610957;4186832.5814877083;7504684.155263257;data.mos;Нет информации;Октябрьская;Октябрьская, выход 1 из вестибюля кольцевой линии
393;55.7797496;37.633592;4189352.2981618135;7514694.391537718;data.mos;Нет информации;Проспект Мира;Проспект Мира, выход 2 из вестибюля
276;55.6564207;37.539179;4178842.291077548;7490320.574765798;data.mos;Нет информации;Калужская;Калужская, вход-выход 2 в южный вестибюль
278;55.6561196;37.5400104;4178934.8421021937;7490261.161632465;data.mos;Нет информации;Калужская;Калужская, вход-выход 4 в южный вестибюль
282;55.6579916;37.5408091;4179023.7529794904;7490630.5525894305;data.mos;Нет информации;Калужская;Калужская, вход-выход 2 в северный вестибюль
360;55.8546056;37.65118;4191310.1853658855;7529526.0221650805;data.mos;Нет информации;Свиблово;Свиблово, вход-выход 2 в южный вестибюль
365;55.868448;37.663208;4192649.1362011475;7532271.822147462;data.mos;Нет информации;Бабушкинская;Бабушкинская, вход-выход 2 в южный вестибюль
367;55.8707105;37.6643751;4192779.057178852;7532720.708208149;data.mos;Нет информации;Бабушкинская;Бабушкинская, вход-выход 2 в северный вестибюль
369;55.870572;37.665231;4192874.3355310224;7532693.22868571;data.mos;Нет информации;Бабушкинская;Бабушкинская, вход-выход 4 в северный вестибюль
371;55.8860095;37.661323;4192439.2989610024;7535756.757309048;data.mos;Нет информации;Медведково;Медведково, выход из южного вестибюля
373;55.8881393;37.6617139;4192482.8137499536;7536179.505794399;data.mos;Нет информации;Медведково;Медведково, выход из северного вестибюля
385;55.6537746;37.622029;4188065.1108897706;7489798.461235973;data.mos;Нет информации;Варшавская;Варшавская, вход-выход 2 в северный вестибюль
386;55.6537836;37.6223458;4188100.3769044545;7489800.237005413;data.mos;Нет информации;Варшавская;Варшавская, вход-выход 3 в северный вестибюль
220;55.7510022;37.7842983;4206128.846737152;7509006.083089299;data.mos;Нет информации;Перово;Перово, вход-выход 4 в западный вестибюль
291;55.670868;37.555662;4180677.170244294;7493171.857047028;data.mos;Нет информации;Новые Черёмушки;Новые Черёмушки, вход-выход 4 в северный вестибюль
293;55.6771381;37.5616571;4181344.5417235484;7494409.635603505;data.mos;Нет информации;Профсоюзная;Профсоюзная, вход-выход 2 в южный вестибюль
295;55.676938;37.562204;4181405.422353064;7494370.130858052;data.mos;Нет информации;Профсоюзная;Профсоюзная, вход-выход 4 в южный вестибюль
297;55.6787501;37.5634052;4181539.139325404;7494727.892098796;data.mos;Нет информации;Профсоюзная;Профсоюзная, вход-выход 2 в северный вестибюль
299;55.6785501;37.5639475;4181599.5078852614;7494688.405468597;data.mos;Нет информации;Профсоюзная;Профсоюзная, вход-выход 4 в северный вестибюль
301;55.6870202;37.5722186;4182520.242525562;7496360.86081352;data.mos;Нет информации;Академическая;Академическая, вход-выход 2 в южный вестибюль
303;55.6868261;37.5729207;4182598.3999400474;7496322.53093169;data.mos;Нет информации;Академическая;Академическая, вход-выход 4 в южный вестибюль
305;55.6887732;37.5740988;4182729.5454321518;7496707.042965895;data.mos;Нет информации;Академическая;Академическая, вход-выход 2 в северный вестибюль
306;55.6885839;37.5748037;4182808.0145412115;7496669.659285469;data.mos;Нет информации;Академическая;Академическая, вход-выход 3 в северный вестибюль
309;55.7069319;37.5848694;4183928.52313969;7500293.933455527;data.mos;Нет информации;Ленинский проспект;Ленинский проспект, выход из южного вестибюля
311;55.7084539;37.5874188;4184212.3210495184;7500594.6500266995;data.mos;Нет информации;Ленинский проспект;Ленинский проспект, выход из северного вестибюля
313;55.7187168;37.6078527;4186487.012392439;7502622.698400417;data.mos;Нет информации;Шаболовская;Шаболовская, выход из вестибюля
315;55.7311623;37.6128713;4187045.6803889344;7505082.764738299;data.mos;Нет информации;Октябрьская;Октябрьская, выход 1 из вестибюля
320;55.753277;37.633673;4189361.3150405684;7509456.049773596;data.mos;Нет информации;Китай-город;Китай-город, вход-выход 4 в южный вестибюль
323;55.7531039;37.6333267;4189322.7651009066;7509421.808815546;data.mos;Нет информации;Китай-город;Китай-город, вход-выход 7 в южный вестибюль
329;55.7570083;37.6318543;4189158.8582826625;7510194.176183564;data.mos;Нет информации;Китай-город;Китай-город, вход-выход 6 в северный вестибюль
332;55.7662971;37.6364586;4189671.4066141215;7512031.994970491;data.mos;Нет информации;Тургеневская;Тургеневская, вход-выход 1 в вестибюль
333;55.7663251;37.6367156;4189700.0157232555;7512037.535521919;data.mos;Нет информации;Тургеневская;Тургеневская, вход-выход 2 в вестибюль
421;55.742496;37.6533707;4191554.052974367;7507323.747148519;data.mos;Нет информации;Таганская;Таганская, выход из вестибюля
423;55.731524;37.635997;4189620.021537172;7505154.272667803;data.mos;Нет информации;Павелецкая;Павелецкая, вход 2 в вестибюль
424;55.7313938;37.6365634;4189683.072896757;7505128.532109255;data.mos;Нет информации;Павелецкая;Павелецкая, выход из вестибюля
395;55.7752944;37.5827264;4183689.9654709194;7513812.557063642;data.mos;Нет информации;Белорусская;Белорусская, выход из западного вестибюля
425;55.611206;37.7448722;4201739.953361188;7481403.910899826;data.mos;Нет информации;Зябликово;Зябликово, вход-выход в южный вестибюль
591;55.8366001;37.5752041;4182852.5868653255;7525955.886426861;data.mos;Нет информации;Петровско-Разумовская;Петровско-Разумовская, выход из вестибюля
593;55.8460782;37.5894504;4184438.4777270127;7527835.000692258;data.mos;Нет информации;Владыкино;Владыкино, выход из южного вестибюля
595;55.8482237;37.5906357;4184570.4247194505;7528260.427985688;data.mos;Нет информации;Владыкино;Владыкино, выход из северного вестибюля
597;55.862482;37.6035557;4186008.6725405003;7531088.277142419;data.mos;Нет информации;Отрадное;Отрадное, вход-выход 2 в южный вестибюль
697;55.7959432;37.7136586;4198265.271303362;7517900.50110759;data.mos;Нет информации;Преображенская площадь;Преображенская площадь, вход-выход 3 в южный вестибюль
698;55.7953691;37.7139381;4198296.385101039;7517786.814431058;data.mos;Нет информации;Преображенская площадь;Преображенская площадь, вход-выход 4 в южный вестибюль
430;55.6200017;37.7443096;4201677.325015668;7483137.680263907;data.mos;Нет информации;Шипиловская;Шипиловская, вход-выход 3 в южный вестибюль
444;55.6590471;37.7498276;4202291.585965864;7490838.8361011855;data.mos;Нет информации;Братиславская;Братиславская, вход-выход 2 в южный вестибюль
466;55.7180916;37.6769216;4194175.7271700897;7502499.137587649;data.mos;Нет информации;Дубровка;Дубровка, вход-выход 2 в вестибюль
470;55.746918;37.680107;4194530.324276063;7508198.273982652;data.mos;Нет информации;Римская;Римская, вход-выход 3 в вестибюль
472;55.7559672;37.6581527;4192086.3827793407;7509988.2184992675;data.mos;Нет информации;Чкаловская;Чкаловская, вход 2 в вестибюль
699;55.7952782;37.7142113;4198326.797585924;7517768.814029268;data.mos;Нет информации;Преображенская площадь;Преображенская площадь, вход-выход 5 в южный вестибюль
704;55.796357;37.7173709;4198678.522649035;7517982.445269638;data.mos;Нет информации;Преображенская площадь;Преображенская площадь, вход-выход 3 в северный вестибюль
705;55.796439;37.717312;4198671.965931027;7517998.683703812;data.mos;Нет информации;Преображенская площадь;Преображенская площадь, вход-выход 4 в северный вестибюль
709;55.8027286;37.7450544;4201760.23577241;7519244.3131158855;data.mos;Нет информации;Черкизовская;Черкизовская, выход из южного вестибюля
724;55.6842382;37.8542378;4213914.476263489;7495811.5037660245;data.mos;Нет информации;Жулебино;Жулебино, вход-выход 4 в 1-й вестибюль
728;55.702099;37.849848;4213425.805962805;7499339.127315444;data.mos;Нет информации;Лермонтовский проспект;Лермонтовский проспект, вход-выход 1 в 1-й вестибюль
729;55.701738;37.850545;4213503.395647886;7499267.811519208;data.mos;Нет информации;Лермонтовский проспект;Лермонтовский проспект, вход-выход 2 в 1-й вестибюль
730;55.7029107;37.8510616;4213560.903296831;7499499.481609937;data.mos;Нет информации;Лермонтовский проспект;Лермонтовский проспект, вход-выход 3 в 1-й вестибюль
732;55.7005819;37.8525934;4213731.422492828;7499039.427608384;data.mos;Нет информации;Лермонтовский проспект;Лермонтовский проспект, вход-выход 2 во 2-й вестибюль
598;55.862289;37.604135;4186073.159921516;7531049.992516646;data.mos;Нет информации;Отрадное;Отрадное, вход-выход 3 в южный вестибюль
602;55.8838921;37.6042175;4186082.3437795066;7535336.493120865;data.mos;Нет информации;Бибирево;Бибирево, вход-выход 1 в южный вестибюль
605;55.883398;37.604883;4186156.4269006304;7535238.426836769;data.mos;Нет информации;Бибирево;Бибирево, вход-выход 4 в южный вестибюль
607;55.884411;37.601283;4185755.6767337746;7535439.482918143;data.mos;Нет информации;Бибирево;Бибирево, вход-выход 2 в северный вестибюль
609;55.8969868;37.5865234;4184112.6455774615;7537935.9131017355;data.mos;Нет информации;Алтуфьево;Алтуфьево, вход-выход 2 в южный вестибюль
611;55.8966671;37.5877304;4184247.008202849;7537872.439224939;data.mos;Нет информации;Алтуфьево;Алтуфьево, вход-выход 4 в южный вестибюль
612;55.8991659;37.5878807;4184263.7395223156;7538368.569903217;data.mos;Нет информации;Алтуфьево;Алтуфьево, вход-выход 1 в северный вестибюль
615;55.8988252;37.5864325;4184102.5266357483;7538300.922863184;data.mos;Нет информации;Алтуфьево;Алтуфьево, вход-выход 4 в северный вестибюль
632;55.6916654;37.5345592;4178328.0172939813;7497278.228075327;data.mos;Нет информации;Университет;Университет, вход 2 в южный вестибюль
633;55.6918504;37.5349748;4178374.2816743553;7497314.765452975;data.mos;Нет информации;Университет;Университет, выход из южного вестибюля
634;55.693462;37.5344495;4178315.8055458413;7497633.062700547;data.mos;Нет информации;Университет;Университет, выход из северного вестибюля
636;55.6931972;37.5346776;4178341.1975216917;7497580.762773178;data.mos;Нет информации;Университет;Университет, вход 2 в северный вестибюль
640;55.7115737;37.5614463;4181321.07557489;7501211.096340551;data.mos;Нет информации;Воробьёвы горы;Воробьёвы горы, выход 1 из северного вестибюля
642;55.7117979;37.5608905;4181259.204201907;7501255.398276055;data.mos;Нет информации;Воробьёвы горы;Воробьёвы горы, выход 2 из северного вестибюля
648;55.7353281;37.5931665;4184852.152086751;7505906.381679699;data.mos;Нет информации;Парк культуры;Парк культуры, выход 2 из объединенного вестибюля
651;55.7458379;37.6053881;4186212.6543754297;7507984.656414809;data.mos;Нет информации;Кропоткинская;Кропоткинская, вход-выход 2 в северный вестибюль
661;55.7570101;37.6156835;4187358.7330609434;7510194.532276915;data.mos;Нет информации;Охотный ряд;Охотный ряд, вход-выход 4 в южный вестибюль
666;55.758886;37.617936;4187609.4802139546;7510565.649831985;data.mos;Нет информации;Охотный ряд;Охотный ряд, вход 1 в северный вестибюль
667;55.758786;37.618006;4187617.27257831;7510545.865941326;data.mos;Нет информации;Охотный ряд;Охотный ряд, выход 1 из северного вестибюля
669;55.75875;37.617464;4187556.9374142997;7510538.743753107;data.mos;Нет информации;Охотный ряд;Охотный ряд, выход 2 из северного вестибюля
671;55.7589744;37.6259133;4188497.50918786;7510583.138833572;data.mos;Нет информации;Лубянка;Лубянка, выход из южного вестибюля
681;55.7648289;37.6385347;4189902.517008958;7511741.477773208;data.mos;Нет информации;Чистые пруды;Чистые пруды, выход из вестибюля
683;55.768314;37.648069;4190963.8704300276;7512431.102942731;data.mos;Нет информации;Красные ворота;Красные ворота, выход из южного вестибюля
685;55.7696702;37.6502712;4191209.0182126528;7512699.481964347;data.mos;Нет информации;Красные ворота;Красные ворота, выход из северного вестибюля
686;55.7745684;37.6561533;4191863.8105894485;7513668.866707936;data.mos;Нет информации;Комсомольская;Комсомольская, вход-выход 1 в вестибюль
687;55.7741984;37.6558441;4191829.3906028955;7513595.637115515;data.mos;Нет информации;Комсомольская;Комсомольская, вход-выход 2 в Казанский вокзал
688;55.7762387;37.6562468;4191874.218961837;7513999.457491274;data.mos;Нет информации;Комсомольская;Комсомольская, выход 3 из объединенного вестибюля
689;55.776744;37.655904;4191836.058640393;7514099.470773551;data.mos;Нет информации;Комсомольская;Комсомольская, выход 4 из объединенного вестибюля
693;55.7892348;37.6795255;4194465.591992167;7516572.1686836695;data.mos;Нет информации;Сокольники;Сокольники, выход 5 из вестибюля
694;55.7893005;37.6799101;4194508.405468326;7516585.176852349;data.mos;Нет информации;Сокольники;Сокольники, выход 2 из вестибюля
695;55.7963262;37.7138546;4198287.089923558;7517976.345964173;data.mos;Нет информации;Преображенская площадь;Преображенская площадь, вход-выход 1 в южный вестибюль
696;55.7962682;37.7135247;4198250.365623546;7517964.860272167;data.mos;Нет информации;Преображенская площадь;Преображенская площадь, вход-выход 2 в южный вестибюль
397;55.777624;37.58613;4184068.8524897834;7514273.6509687845;data.mos;Нет информации;Белорусская;Белорусская, вход-выход 2 в восточный (новый) вестибюль
399;55.7289465;37.6227317;4188143.335095952;7504644.7165221935;data.mos;Нет информации;Добрынинская;Добрынинская, выход из вестибюля
402;55.7775029;37.6570166;4191959.91270585;7514249.6811653515;data.mos;Нет информации;Комсомольская;Комсомольская, вход 1 с Ярославского вокзала
405;55.7762417;37.6562598;4191875.666115218;7514000.051273015;data.mos;Нет информации;Комсомольская;Комсомольская, выход из вестибюля
410;55.7750909;37.6565984;4191913.3588948;7513772.279951534;data.mos;Нет информации;Комсомольская;Комсомольская, вход 7 в вестибюль
412;55.7602789;37.5771948;4183074.190575648;7510841.224919694;data.mos;Нет информации;Краснопресненская;Краснопресненская, выход из вестибюля
413;55.7350748;37.5933011;4184867.1356902113;7505856.299432212;data.mos;Нет информации;Парк культуры;Парк культуры, вход в вестибюль
414;55.7353431;37.5931558;4184850.9609681987;7505909.347476361;data.mos;Нет информации;Парк культуры;Парк культуры, выход из вестибюля
849;55.745419;37.515807;4176240.531938729;7507901.80975225;data.mos;Нет информации;Фили;Фили, выход 3 из восточного вестибюля
851;55.746817;37.513817;4176019.00615205;7508178.298383109;data.mos;Нет информации;Фили;Фили, выход 1 из западного вестибюля
852;55.746908;37.51408;4176048.2831781283;7508196.296198213;data.mos;Нет информации;Фили;Фили, выход 2 из западного вестибюля
854;55.7490401;37.5818407;4183591.3697979236;7508617.991086884;data.mos;Нет информации;Смоленская;Смоленская, выход 2 из вестибюля
858;55.7522387;37.611553;4186898.927904221;7509250.665646159;data.mos;Нет информации;Александровский сад;Александровский сад, вход-выход 3 в подземный вестибюль (к кассам)
862;55.7521403;37.6014064;4185769.4135589376;7509231.201614878;data.mos;Нет информации;Арбатская;Арбатская, выход из вестибюля
870;55.748092;37.543971;4179375.73407743;7508430.469399045;data.mos;Нет информации;Выставочная;Выставочная, вход-выход 1 в вестибюль со стороны моста Багратион
873;55.750071;37.542796;4179244.9336757483;7508821.894695404;data.mos;Нет информации;Выставочная;Выставочная, выход 2 в вестибюль со стороны Экспоцентра
154;55.7064354;37.6573197;4191993.65364351;7500195.837580908;data.mos;Нет информации;Автозаводская;Автозаводская, вход в южный вестибюль
197;55.6335934;37.7654095;4204026.155139456;7485817.581034915;data.mos;Нет информации;Алма-Атинская;Алма-Атинская, выход из южного вестибюля
614;55.8992238;37.5864266;4184101.8698507533;7538380.066186574;data.mos;Нет информации;Алтуфьево;Алтуфьево, вход-выход 3 в северный вестибюль
608;55.8967211;37.5865178;4184112.022188314;7537883.160456124;data.mos;Нет информации;Алтуфьево;Алтуфьево, вход-выход 1 в южный вестибюль
610;55.8970019;37.5877138;4184245.160299302;7537938.911098843;data.mos;Нет информации;Алтуфьево;Алтуфьево, вход-выход 3 в южный вестибюль
613;55.898762;37.5878484;4184260.1439027623;7538288.3743728;data.mos;Нет информации;Алтуфьево;Алтуфьево, вход-выход 2 в северный вестибюль
505;55.5838306;37.5966171;4185236.2711216817;7476010.280894471;data.mos;Нет информации;Аннино;Аннино, вход-выход 1 в северный вестибюль
856;55.7519886;37.610305;4186760.001179711;7509201.194662846;data.mos;Нет информации;Александровский сад;Александровский сад, вход-выход 1 в подземный вестибюль
860;55.7518779;37.6123922;4186992.347220895;7509179.297771499;data.mos;Нет информации;Александровский сад;Александровский сад, вход-выход 5 в подземный вестибюль (в Александровский сад)
859;55.7525264;37.6106381;4186797.0817020945;7509307.574482676;data.mos;Нет информации;Александровский сад;Александровский сад, вход-выход 4 в подземный вестибюль
346;55.8079292;37.6385402;4189903.1292661577;7520274.422545373;data.mos;Нет информации;Алексеевская;Алексеевская, вход в вестибюль
504;55.5814637;37.5962094;4185190.886165285;7475544.119825125;data.mos;Нет информации;Аннино;Аннино, вход-выход в южный вестибюль
62;55.752386;37.603279;4185977.8704373976;7509279.8024432855;data.mos;Нет информации;Арбатская;Арбатская (Арбатско-Покровская линия), вход-выход в вестибюль
861;55.7521203;37.6016349;4185794.850062584;7509227.245516964;data.mos;Нет информации;Арбатская;Арбатская, вход 2 в вестибюль
123;55.80044;37.53058;4177885.0547762173;7518791.0420122;data.mos;Нет информации;Аэропорт;Аэропорт, вход-выход 4 в северный вестибюль
121;55.8010499;37.5319322;4178035.580991668;7518911.833800499;data.mos;Нет информации;Аэропорт;Аэропорт, вход 1 в северный вестибюль
119;55.799983;37.5343722;4178307.2005492034;7518700.533582975;data.mos;Нет информации;Аэропорт;Аэропорт, вход в южный вестибюль
124;55.8013396;37.5318511;4178026.552980964;7518969.21006762;data.mos;Нет информации;Аэропорт;Аэропорт, вход-выход 3 в северный вестибюль
364;55.868764;37.6633714;4192667.3258059435;7532334.515822824;data.mos;Нет информации;Бабушкинская;Бабушкинская, вход-выход 1 в южный вестибюль
366;55.8704586;37.6642327;4192763.2052833633;7532670.729279654;data.mos;Нет информации;Бабушкинская;Бабушкинская, вход-выход 1 в северный вестибюль
368;55.870296;37.6650695;4192856.357433259;7532638.468341169;data.mos;Нет информации;Бабушкинская;Бабушкинская, вход-выход 3 в северный вестибюль
845;55.74366;37.497393;4174190.6948352614;7507553.938631484;data.mos;Нет информации;Багратионовская;Багратионовская, вход-выход в западный вестибюль
846;55.743873;37.498136;4174273.4052169207;7507596.062042991;data.mos;Нет информации;Багратионовская;Багратионовская, вход-выход в восточный вестибюль
777;55.760671;37.581254;4183526.0586526757;7510918.800815215;data.mos;Нет информации;Баррикадная;Баррикадная, вход в вестибюль
156;55.7085971;37.6573731;4191999.598104318;7500622.94406784;data.mos;Нет информации;Автозаводская;Автозаводская, вход-выход 1 в северный вестибюль
157;55.7084422;37.6582104;4192092.8059139596;7500592.338297472;data.mos;Нет информации;Автозаводская;Автозаводская, вход-выход 2 в северный вестибюль
300;55.6871598;37.572374;4182537.5415744316;7496388.42842988;data.mos;Нет информации;Академическая;Академическая, вход-выход 1 в южный вестибюль
302;55.6869507;37.5730611;4182614.0291965553;7496347.136284764;data.mos;Нет информации;Академическая;Академическая, вход-выход 3 в южный вестибюль
304;55.6886305;37.5739375;4182711.5895982864;7496678.862013039;data.mos;Нет информации;Академическая;Академическая, вход-выход 1 в северный вестибюль
307;55.6883706;37.5745675;4182781.7208774863;7496627.536211075;data.mos;Нет информации;Академическая;Академическая, вход-выход 4 в северный вестибюль
857;55.7522365;37.6101956;4186747.822827418;7509250.230474193;data.mos;Нет информации;Александровский сад;Александровский сад, вход-выход 2 в подземный вестибюль
195;55.6321187;37.7668521;4204186.744636875;7485526.766739055;data.mos;Нет информации;Алма-Атинская;Алма-Атинская, вход-выход в северный вестибюль
733;55.6998796;37.8531582;4213794.295741228;7498900.69375553;data.mos;Нет информации;Лермонтовский проспект;Лермонтовский проспект, вход-выход 3 во 2-й вестибюль
734;55.6996757;37.8535665;4213839.747489318;7498860.415377825;data.mos;Нет информации;Лермонтовский проспект;Лермонтовский проспект, вход-выход 4 во 2-й вестибюль
736;55.705595;37.7673191;4204238.7308390755;7500029.798582385;data.mos;Нет информации;Кузьминки;Кузьминки, вход-выход 2 в восточный вестибюль
737;55.704878;37.766992;4204202.318233636;7499888.14271664;data.mos;Нет информации;Кузьминки;Кузьминки, вход-выход 3 в восточный вестибюль
739;55.705971;37.7644433;4203918.598247452;7500104.084984649;data.mos;Нет информации;Кузьминки;Кузьминки, вход-выход 1 в западный вестибюль
742;55.705253;37.764105;4203880.938863717;7499962.230188323;data.mos;Нет информации;Кузьминки;Кузьминки, вход-выход 4 в западный вестибюль
744;55.708417;37.729567;4200036.186290699;7500587.359190721;data.mos;Нет информации;Текстильщики;Текстильщики, вход-выход 2 в западный вестибюль
745;55.7084281;37.7293094;4200007.51038987;7500589.552368299;data.mos;Нет информации;Текстильщики;Текстильщики, вход-выход 3 в западный вестибюль
753;55.7160789;37.8183355;4209917.850509182;7502101.372952115;data.mos;Нет информации;Выхино;Выхино, вход-выход 3 в вестибюль
760;55.7169803;37.7933598;4207137.568302975;7502279.511741758;data.mos;Нет информации;Рязанский проспект;Рязанский проспект, выход из восточного вестибюля
762;55.7255511;37.6854206;4195121.831522343;7503973.51784157;data.mos;Нет информации;Волгоградский проспект;Волгоградский проспект, вход-выход 2 в восточный вестибюль
819;55.8277837;37.4380056;4167579.719707724;7524208.37097578;data.mos;Нет информации;Тушинская;Тушинская, вход-выход 3 во 2-й вестибюль
831;55.8595892;37.4369805;4167465.606097712;7530514.464099927;data.mos;Нет информации;Планерная;Планерная, выход 1 из вестибюля
832;55.8617814;37.4359691;4167353.0175647237;7530949.302875168;data.mos;Нет информации;Планерная;Планерная, вход во 2-й вестибюль
848;55.74534;37.515541;4176210.9209541767;7507886.185869263;data.mos;Нет информации;Фили;Фили, выход 2 из восточного вестибюля
754;55.7162301;37.8178371;4209862.36887497;7502131.253500528;data.mos;Нет информации;Выхино;Выхино, вход-выход 4 в вестибюль
755;55.7160518;37.8170054;4209769.784454477;7502096.017389854;data.mos;Нет информации;Выхино;Выхино, вход-выход 5 в вестибюль
758;55.7162199;37.7928231;4207077.823132266;7502129.237745608;data.mos;Нет информации;Рязанский проспект;Рязанский проспект, выход из западного вестибюля
67;55.772359;37.678778;4194382.3806727985;7513231.59740023;data.mos;Нет информации;Бауманская;Бауманская, вход в вестибюль
443;55.6592742;37.7496881;4202276.056896899;7490883.650843435;data.mos;Нет информации;Братиславская;Братиславская, вход-выход 1 в южный вестибюль
445;55.6587008;37.7489423;4202193.034820666;7490770.499546468;data.mos;Нет информации;Братиславская;Братиславская, вход-выход 3 в южный вестибюль
208;55.7515696;37.7164033;4198570.809909743;7509118.315157709;data.mos;Нет информации;Авиамоторная;Авиамоторная, вход-выход 5 в вестибюль
207;55.7516802;37.7163711;4198567.22542214;7509140.192095736;data.mos;Нет информации;Авиамоторная;Авиамоторная, вход-выход 4 в вестибюль
205;55.7519564;37.7167999;4198614.959219791;7509194.825370969;data.mos;Нет информации;Авиамоторная;Авиамоторная, вход-выход 2 в вестибюль
209;55.7512426;37.7166177;4198594.676808569;7509053.634157614;data.mos;Нет информации;Авиамоторная;Авиамоторная, вход-выход 6 в вестибюль
204;55.7523119;37.7170683;4198644.837371121;7509265.145018351;data.mos;Нет информации;Авиамоторная;Авиамоторная, вход-выход 1 в вестибюль
206;55.7519341;37.7174791;4198690.567417938;7509190.414342719;data.mos;Нет информации;Авиамоторная;Авиамоторная, вход-выход 3 в вестибюль
210;55.7509368;37.7175141;4198694.463600117;7508993.147034065;data.mos;Нет информации;Авиамоторная;Авиамоторная, вход-выход 7 в вестибюль
211;55.7509721;37.717731;4198718.6087976685;7509000.129336413;data.mos;Нет информации;Авиамоторная;Авиамоторная, вход-выход 8 в вестибюль
212;55.7510688;37.7178218;4198728.716607434;7509019.256525635;data.mos;Нет информации;Авиамоторная;Авиамоторная, вход-выход 9 в вестибюль
764;55.7246062;37.6878151;4195388.386043047;7503786.741501596;data.mos;Нет информации;Волгоградский проспект;Волгоградский проспект, вход-выход 2 в западный вестибюль
766;55.7316821;37.6640628;4192744.292101878;7505185.52917574;data.mos;Нет информации;Пролетарская;Пролетарская, вход-выход 2 в западный вестибюль
767;55.7315311;37.6642394;4192763.951123952;7505155.67634128;data.mos;Нет информации;Пролетарская;Пролетарская, вход-выход 3 в западный вестибюль
768;55.7314431;37.664315;4192772.366877456;7505138.278716178;data.mos;Нет информации;Пролетарская;Пролетарская, вход-выход 4 в западный вестибюль
778;55.7607315;37.5814844;4183551.7066633548;7510930.770641572;data.mos;Нет информации;Баррикадная;Баррикадная, выход из вестибюля
780;55.7614737;37.6241715;4188303.612898796;7511077.615212828;data.mos;Нет информации;Кузнецкий мост;Кузнецкий мост, выход из вестибюля
783;55.7639585;37.5624294;4181430.5137662888;7511569.254244336;data.mos;Нет информации;Улица 1905 года;Улица 1905 года, выход 1 из вестибюля
793;55.7730204;37.548946;4179929.548544127;7513362.494556505;data.mos;Нет информации;Беговая;Беговая, вход-выход 2 в 1-й вестибюль
818;55.8274301;37.4370025;4167468.055126509;7524138.291507735;data.mos;Нет информации;Тушинская;Тушинская, вход-выход 2 во 2-й вестибюль
874;55.8174959;37.43463;4167203.9496346023;7522169.707212305;data.mos;Нет информации;Спартак;Спартак, вход-выход 1 в южный вестибюль
875;55.8175469;37.4340509;4167139.4845174844;7522179.812208004;data.mos;Нет информации;Спартак;Спартак, вход-выход 2 в южный вестибюль
876;55.8171942;37.4339862;4167132.2821464296;7522109.929498859;data.mos;Нет информации;Спартак;Спартак, вход-выход 3 в южный вестибюль
877;55.8171574;37.4345598;4167196.135006349;7522102.638115741;data.mos;Нет информации;Спартак;Спартак, вход-выход 4 в южный вестибюль
878;55.8195532;37.4355097;4167301.8773906534;7522577.345322206;data.mos;Нет информации;Спартак;Спартак, вход в северный вестибюль
879;55.819532;37.4352894;4167277.3537068316;7522573.144595992;data.mos;Нет информации;Спартак;Спартак, выход из северного вестибюля
880;55.6461425;37.4735129;4171532.374263169;7488292.735942611;data.mos;Нет информации;Тропарёво;Тропарёво, вход-выход 1 в 1 вестибюль
881;55.6465539;37.474398;4171630.9031444695;7488373.8929342795;data.mos;Нет информации;Тропарёво;Тропарёво, вход-выход 2 в 1 вестибюль
882;55.6453196;37.4717578;4171336.9974248772;7488130.40479031;data.mos;Нет информации;Тропарёво;Тропарёво, вход-выход 1 во 2 вестибюль
883;55.6449484;37.4709532;4171247.429762584;7488057.1803339515;data.mos;Нет информации;Тропарёво;Тропарёво, вход-выход 2 во 2 вестибюль
884;55.6450545;37.4721169;4171376.9722540216;7488078.10999054;data.mos;Нет информации;Тропарёво;Тропарёво, вход-выход 3 во 2 вестибюль
885;55.6447182;37.4713839;4171295.3750672694;7488011.770472865;data.mos;Нет информации;Тропарёво;Тропарёво, вход-выход 4 во 2 вестибюль
886;55.64455;37.4727678;4171449.430110578;7487978.591064576;data.mos;Нет информации;Тропарёво;Тропарёво, вход-выход 5 во 2 вестибюль
887;55.6442227;37.472059;4171370.526855504;7487914.027737355;data.mos;Нет информации;Тропарёво;Тропарёво, вход-выход 6 во 2 вестибюль
888;55.7650181;37.6054893;4186223.9199078977;7511778.914738316;data.mos;Нет информации;Пушкинская;Пушкинская, вход-выход 5 в совмещенный вестибюль
889;55.7642656;37.6054464;4186219.144301743;7511630.018793582;data.mos;Нет информации;Пушкинская;Пушкинская, вход-выход 6 в совмещенный вестибюль
890;55.7642336;37.6057429;4186252.1505307634;7511623.687069596;data.mos;Нет информации;Пушкинская;Пушкинская, вход-выход 7 в совмещенный вестибюль
891;55.7649524;37.6062287;4186306.22953939;7511765.914672232;data.mos;Нет информации;Пушкинская;Пушкинская, вход-выход 8 в совмещенный вестибюль
892;55.7651792;37.6066843;4186356.946699396;7511810.791705401;data.mos;Нет информации;Пушкинская;Пушкинская, вход-выход 9 в совмещенный вестибюль
901;55.6753333;37.8563054;4214144.640442653;7494053.330244914;data.mos;Нет информации;Котельники;Котельники, вход-выход 1 в 1-й вестибюль
902;55.6748635;37.8564195;4214157.341996552;7493960.584571663;data.mos;Нет информации;Котельники;Котельники, вход-выход 2 в 1-й вестибюль
903;55.6746393;37.856882;4214208.827261044;7493916.324470538;data.mos;Нет информации;Котельники;Котельники, вход-выход 3 в 1-й вестибюль
904;55.6761333;37.8576946;4214299.2854792625;7494211.264989002;data.mos;Нет информации;Котельники;Котельники, вход-выход 4 в 1-й вестибюль
905;55.6769;37.858;4214333.282451751;7494362.628730323;data.mos;Нет информации;Котельники;Котельники, вход-выход 5 в 1-й вестибюль
906;55.6737847;37.8587337;4214414.957562147;7493747.617240783;data.mos;Нет информации;Котельники;Котельники, вход-выход 1 во 2-й вестибюль
907;55.6735212;37.8592766;4214475.392913698;7493695.600250605;data.mos;Нет информации;Котельники;Котельники, вход-выход 2 во 2-й вестибюль
911;55.7239984;37.5655148;4181773.9789231825;7503666.601378378;data.mos;Нет информации;Спортивная;Спортивная, выход из северного вестибюля
912;55.7450636;37.6016736;4185799.158126878;7507831.52230483;data.mos;Нет информации;Кропоткинская;Кропоткинская, выход из южного вестибюля
913;55.568379;37.5750339;4182833.640287992;7472967.594541182;data.mos;Нет информации;Бульвар Дмитрия Донского;Бульвар Дмитрия Донского, вход-выход 5 в южный вестибюль
914;55.6403445;37.6059598;4186276.2957283165;7487149.053542895;data.mos;Нет информации;Чертановская;Чертановская, вход-выход 6 в северный вестибюль
915;55.6729745;37.611284;4186868.982961197;7493587.678451451;data.mos;Нет информации;Нагорная;Нагорная, вход-выход 3 в вестибюль
916;55.8193496;37.5762248;4182966.2106695776;7522537.002593324;data.mos;Нет информации;Тимирязевская;Тимирязевская, вход-выход 6 в вестибюль
918;55.8186625;37.5762194;4182965.6095443275;7522400.857348972;data.mos;Нет информации;Тимирязевская;Тимирязевская, вход-выход 7 в вестибюль(пандус)
919;55.793952;37.6165035;4187450.015043393;7517506.199083782;data.mos;Нет информации;Марьина роща;Марьина Роща, вход-выход 4 в южный вестибюль
920;55.7178862;37.6770785;4194193.193198196;7502458.543983863;data.mos;Нет информации;Дубровка;Дубровка, входы-выходы 3 в вестибюль
925;55.8179301;37.4981752;4174277.7689409596;7522255.738795368;data.mos;Нет информации;Войковская;Войковская, вход-выход 4 в южный вестибюль
926;55.7094701;37.5576425;4180897.6384958103;7500795.437218226;data.mos;Нет информации;Воробьёвы горы;Воробьёвы горы, вход-выход 3 в южный вестибюль
927;55.7598187;37.6246762;4188359.7958458;7510750.1766233705;data.mos;Нет информации;Лубянка;Лубянка, вход-выход в южный вестибюль (Детский мир)
908;55.6694562;37.5534261;4180428.27099483;7492893.181393015;data.mos;Нет информации;Новые Черёмушки;Новые Черёмушки, вход-выход в южный вестибюль
922;55.7316865;37.6358771;4189606.674330226;7505186.399061388;data.mos;Нет информации;Павелецкая;Павелецкая, выход 2 из вестибюля Кольцевой линии
910;55.7443435;37.567234;4181965.359391754;7507689.110111983;data.mos;Нет информации;Киевская;Киевская, вход-выход 4 в вестибюль
909;55.7441049;37.5669578;4181934.6129483962;7507641.923427108;data.mos;Нет информации;Киевская;Киевская,вход-выход 3 в вестибюль
923;55.7773725;37.6579115;4192059.5325181605;7514223.870659308;data.mos;Нет информации;Комсомольская;Комсомольская, вход 8 в вестибюль
924;55.7774812;37.6568976;4191946.6656864453;7514245.386006131;data.mos;Нет информации;Комсомольская;Комсомольская, вход 1 Сокольнической линии с Ярославского вокзала
921;55.7294594;37.6109171;4186828.1398400255;7504746.11106596;data.mos;Нет информации;Октябрьская;Октябрьская, выход 2 из вестибюля Кольцевой линии
928;55.692807;37.664749;4192820.6795364604;7497503.696078674;data.mos;Нет информации;Технопарк;Технопарк, вход-выход 1 в южный вестибюль
929;55.692804;37.664406;4192782.496951118;7497503.103564782;data.mos;Нет информации;Технопарк;Технопарк, вход-выход 2 в южный вестибюль
930;55.693837;37.664604;4192804.5382102947;7497707.1285360865;data.mos;Нет информации;Технопарк;Технопарк, вход-выход 1 в северный вестибюль
931;55.693825;37.664255;4192765.6877080076;7497704.758418344;data.mos;Нет информации;Технопарк;Технопарк, вход-выход 2 в северный вестибюль
932;55.632939;37.439908;4167791.4939070097;7485688.53047054;data.mos;Нет информации;Румянцево;Румянцево вход-выход в южный вестибюль
933;55.632964;37.443499;4168191.2421984486;7485693.460541136;data.mos;Нет информации;Румянцево;Румянцево вход-выход в северный вестибюль
934;55.621523;37.42422;4166045.113735445;7483437.591629024;data.mos;Нет информации;Саларьево;Саларьево, выход в южный вестибюль
935;55.621835;37.424644;4166092.3131995406;7483499.101215568;data.mos;Нет информации;Саларьево;Саларьево, вход в северный вестибюль
936;55.822019;37.589069;4184396.0204732255;7523065.952951721;data.mos;Нет информации;Фонвизинская;Фонвизинская, вход-выход в первый вестибюль
938;55.814306;37.600984;4185722.3922060267;7521537.695770358;data.mos;Нет информации;Бутырская;Бутырская, вход-выход во второй вестибюль
940;55.833251;37.573883;4182705.5226860386;7525292.0082696965;data.mos;Нет информации;Петровско-Разумовская;Петровско-Разумовская, вход -выход в первый вестибюль
941;55.836629;37.575981;4182939.0709777228;7525961.615402433;data.mos;Нет информации;Петровско-Разумовская;Петровско-Разумовская, вход-выход в объединенный вестибюль
942;55.746438;37.736613;4200820.5434228275;7508103.340901359;data.mos;Нет информации;Андроновка;Андроновка, вход-выход 1
943;55.746034;37.737601;4200930.527079731;7508023.439796442;data.mos;Нет информации;Андроновка;Андроновка, вход-выход 2
946;55.788422;37.74262;4201489.239604023;7516411.241434359;data.mos;Нет информации;Измайлово;Измайлово, вход-выход 1
947;55.788392;37.743341;4201569.5009568855;7516405.301762542;data.mos;Нет информации;Измайлово;Измайлово, вход-выход 2
948;55.803199;37.745779;4201840.897875438;7519337.481988464;data.mos;Нет информации;Локомотив;Локомотив, вход-выход 1
949;55.802735;37.745116;4201767.093053044;7519245.58071204;data.mos;Нет информации;Локомотив;Локомотив, вход-выход 2
950;55.81571;37.737522;4200921.732839959;7521815.862391067;data.mos;Нет информации;Бульвар Рокоссовского;Бульвар Рокоссовского, вход-выход
951;55.829815;37.702533;4197026.775176593;7524610.963700873;data.mos;Нет информации;Белокаменная;Белокаменная, вход-выход 1
952;55.829128;37.701823;4196947.73833813;7524474.80164619;data.mos;Нет информации;Белокаменная;Белокаменная, вход-выход 2
953;55.839289;37.668483;4193236.3465150823;7526488.93726912;data.mos;Нет информации;Ростокино;Ростокино, вход-выход 1
954;55.839145;37.668365;4193223.2108151685;7526460.389597834;data.mos;Нет информации;Ростокино;Ростокино, вход-выход 2
957;55.848215;37.590832;4184592.276735493;7528258.70283109;data.mos;Нет информации;Владыкино;Владыкино, вход-выход 1
958;55.846329;37.589783;4184475.502589651;7527884.730156129;data.mos;Нет информации;Владыкино;Владыкино, вход-выход 2
959;55.848466;37.572741;4182578.395827553;7528308.474687854;data.mos;Нет информации;Окружная;Окружная, вход-выход 1
976;55.69013;37.618022;4187619.053690163;7496974.994262423;data.mos;Нет информации;Верхние Котлы;Верхние Котлы, вход-выход 2
977;55.699421;37.648603;4191023.315038112;7498810.1022703415;data.mos;Нет информации;ЗИЛ;ЗИЛ, вход-выход 1
978;55.698447;37.650607;4191246.3992976616;7498617.702598435;data.mos;Нет информации;ЗИЛ;ЗИЛ, вход-выход 2
979;55.705366;37.662899;4192614.738478493;7499984.555352524;data.mos;Нет информации;Автозаводская;Автозаводская, вход-выход 1
980;55.705993;37.660571;4192355.5867039254;7500108.431551598;data.mos;Нет информации;Автозаводская;Автозаводская, вход-выход 2
981;55.717481;37.695995;4196298.968345787;7502378.464141195;data.mos;Нет информации;Угрешская;Угрешская, вход-выход 1
982;55.717972;37.695652;4196260.785760445;7502475.500779736;data.mos;Нет информации;Угрешская;Угрешская, вход-выход 2
983;55.718487;37.694644;4196148.575713724;7502577.2818641085;data.mos;Нет информации;Угрешская;Угрешская, вход-выход 3
984;55.724616;37.717679;4198712.820184147;7503788.678623211;data.mos;Нет информации;Новохохловская;Новохохловская, вход-выход 1
985;55.724243;37.71803;4198751.893325416;7503714.949745401;data.mos;Нет информации;Новохохловская;Новохохловская, вход-выход 2
986;55.731057;37.727479;4199803.751193922;7505061.94709954;data.mos;Нет информации;Нижегородская;Нижегородская, вход-выход 1
991;55.711591;37.676646;4194145.047518427;7501214.514812695;data.mos;Нет информации;Дубровка;Дубровка, вход-выход 1
992;55.712069;37.67685;4194167.7566945497;7501308.967994384;data.mos;Нет информации;Дубровка;Дубровка, вход-выход 2
993;55.712972;37.675895;4194061.4465808417;7501487.40466927;data.mos;Нет информации;Дубровка;Дубровка, вход-выход 3
960;55.848789;37.572848;4182590.307013067;7528372.52420357;data.mos;Нет информации;Окружная;Окружная, вход-выход 2
961;55.846983;37.554116;4180505.0703115277;7528014.408975515;data.mos;Нет информации;Лихоборы;Лихоборы, вход-выход 1
962;55.848437;37.552485;4180323.5082220435;7528302.72413818;data.mos;Нет информации;Лихоборы;Лихоборы, вход-выход 2
963;55.825623;37.493991;4173811.9859275823;7523780.1549423225;data.mos;Нет информации;Балтийская;Балтийская, вход-выход
964;55.812839;37.488084;4173154.4216954666;7521247.058034739;data.mos;Нет информации;Стрешнево;Стрешнево, вход-выход
966;55.756268;37.525104;4177275.469244633;7510047.724294557;data.mos;Нет информации;Шелепиха;Шелепиха, вход-выход
969;55.739566;37.534021;4178268.105144037;7506744.343654879;data.mos;Нет информации;Кутузовская;Кутузовская, вход-выход
970;55.72088;37.560927;4181263.2673633206;7503050.235655302;data.mos;Нет информации;Лужники;Лужники, вход-выход
971;55.706911;37.586713;4184133.7517529163;7500289.804117647;data.mos;Нет информации;Площадь Гагарина;Площадь Гагарина, вход-выход 1
973;55.689973;37.606426;4186328.1928749233;7496943.988219525;data.mos;Нет информации;Крымская;Крымская, вход-выход 1
974;55.690291;37.604996;4186169.0060030892;7497006.7903975;data.mos;Нет информации;Крымская;Крымская, вход-выход 2
975;55.689873;37.618185;4187637.198767162;7496924.2392125195;data.mos;Нет информации;Верхние Котлы;Верхние Котлы, вход-выход 1
944;55.758882;37.748493;4202143.018973453;7510564.858475385;data.mos;Нет информации;Шоссе Энтузиастов;Шоссе энтузиастов, вход-выход 1
945;55.758792;37.745428;4201801.82473417;7510547.052973337;data.mos;Нет информации;Шоссе Энтузиастов;Шоссе энтузиастов, вход-выход 2
955;55.845851;37.639839;4190047.7110208;7527789.950992411;data.mos;Нет информации;Ботанический сад;Ботанический Сад, вход-выход 1
956;55.845326;37.639882;4190052.497758904;7527685.853881558;data.mos;Нет информации;Ботанический сад;Ботанический Сад, вход-выход 2
965;55.776923;37.507364;4175300.661477961;7514134.900290071;data.mos;Нет информации;Хорошёво;Хорошёво, вход-выход
967;55.747767;37.531653;4178004.500589838;7508366.1897300435;data.mos;Нет информации;Деловой центр;Деловой центр, вход-выход 1
968;55.747872;37.53307;4178162.2403082927;7508386.956949169;data.mos;Нет информации;Деловой центр;Деловой центр, вход-выход 2
972;55.707035;37.586019;4184056.4960263055;7500314.303570875;data.mos;Нет информации;Площадь Гагарина;Площадь Гагарина, вход-выход 2
987;55.770326;37.747759;4202061.31046721;7512829.261867309;data.mos;Нет информации;Соколиная Гора;Соколиная гора, вход-выход 1
988;55.770252;37.748201;4202110.513682141;7512814.617487184;data.mos;Нет информации;Соколиная Гора;Соколиная гора, вход-выход 2
989;55.770137;37.746088;4201875.295598094;7512791.8593840515;data.mos;Нет информации;Соколиная Гора;Соколиная гора, вход-выход 3
990;55.769637;37.744606;4201710.320112739;7512692.911890087;data.mos;Нет информации;Соколиная Гора;Соколиная гора, вход-выход 4
